Verband,Name,Region,Plz,Adresse,Telefon,Fax,Web,E-Mail,Angebotsart,Sprache,Leistungskategorie,Google Maps URL,latitude,longitude
AWO Kreisverband Mitte e.V.,Rechtsberatung,Mitte,13347,Hochstädter Straße 1,030 455 087 0,,www.awo-mitte.de,info@awo-mitte.de,Rechtsberatung für Erwachsene,Deutsch,Beratung,,52.551829,13.365339
AWO Kreisverband Mitte e.V.,Telefonische Rechtsberatung,Mitte,13347,Hochstädter Straße 1,030 45 50 87 16,,https://awo-mitte.de/beratung/#rechtsberatung,info@awo-mitte.de,Rechtsberatung für Erwachsene,Deutsch,Beratung,,52.551829,13.365339
AWO Kreisverband Mitte e.V.,Schuldner- und Insolvenzberatung,Mitte,13357,Badstraße 33,030 49 30 140,,https://awo-mitte.de/beratung/#schuldner-insolvenzberatung,sib@awo-mitte.de,Schuldner- und Insolvenzberatung für Menschen mit sozialen Schwierigkeiten und Erwachsene,Deutsch,Beratung,,48.014437,16.930237
AWO Kreisverband Südost e.V.,"Nachbarschaftsmittler im ""Haus der Begegnung Fennpfuhl“",Lichtenberg,10369,Otto-Marquardt-Straße 6-8,030 30608212,030 30608222,,nachbarschaft-im-HH@awo-suedost.de,Unterstützung bei Problemen mit dem Vermieter oder in der Nachbarschaft,Deutsch,Beratung,,52.533004,13.471238
AWO Kreisverband Südwest e.V.,Mieter-/Renten- sowie kostenlose Erstrechtsberatung und Sozialberatung,Tempelhof-Schöneberg,10781,Goltzstraße 19,030 70 00 90 19,,https://www.awo-suedwest.de/beratung.html,,"Beratung für Erwachsene, Rechtsberatung für Erwachsene",Deutsch,Beratung,,52.383132,13.400111
AWO Landesverband Berlin e.V.,Erstrechtsberatung,Neukölln,12055,Wipperstraße 25,030 25 389 217,,www.awoberlin.de,info@awoberlin.de,Rechtsberatung für Erwachsene,Deutsch,Beratung,,52.470202,13.442974
AWO pro:mensch gGmbH,Ambulante Hilfe/Pflegekinderteam,Reinickendorf,13469,Avenue Charles de Gaulle 1d,030 41 10 78 00,030 41 46 516,https://www.awo-promensch.de/hilfen-zur-erziehung/pflegekinderhilfe/,pflegekinder@awo-promensch.de,"Beratung für Familien, Erziehungsberatung für Familien",Deutsch,"Beratung,Familie",,50.436049,4.762279
AWO Kreisverband Spree-Wuhle e.V.,Schuldner- und Insolvenzberatung,Friedrichshain-Kreuzberg,10969,Rudi-Dutschke-Str. 9,030 2529 3540,030 2529 3541,https://www.awo-spree-wuhle.de/schuldner-und-insolvenzberatung/,inso@awo-spree-wuhle.de,"Existenzsicherung, Haushaltsberatung, Schuldenregulierung",Deutsch,"Beratung,finanzielle Schwierigkeiten",,52.506873,13.395345
AWO Kreisverband Südost e.V.,Schuldner- und Insolvenzberatung Neukölln,Neukölln,12049,Mahlower Straße 23,030 319 872 00,030 319 872 030,https://www.awo-südost.de/schuldnerberatung,schuldnerberatung@awo-suedost.de,Schuldner- und Insolvenzberatung für Menschen mit sozialen Schwierigkeiten und Erwachsene,Deutsch,"Beratung,finanzielle Schwierigkeiten",,52.251825,13.445609
AWO Kreisverband Mitte e.V.,Rentenberatung,Mitte,13347,Hochstädter Straße 1,030 45 50 87 16,,https://awo-mitte.de/beratung/#rentenberatung,,Rentenberatung für Erwachsene,Deutsch,"Beratung,finanzielle Schwierigkeiten,Senior*innen",,52.551829,13.365339
AWO Kreisverband Mitte e.V.,Rentenberatung,Mitte,10555,Turmstraße 71,030 39 49 38 65,,https://awo-mitte.de/beratung/#rentenberatung,,Rentenberatung für Erwachsene,Deutsch,"Beratung,finanzielle Schwierigkeiten,Senior*innen",,48.274811,14.317008
AWO Kreisverband Südwest e.V.,Mieter-/Renten-/Soziale Beratung „Rund um die Pflegeversicherung“ sowie kostenlose Erstrechtsberatung,Steglitz-Zehlendorf,12207,Osdorfer Straße 121,030 713 870 90,,www.awo-suedwest.de,,"Beratung für Erwachsene, Rentenberatung für Erwachsene",Deutsch,"Beratung,finanzielle Schwierigkeiten,Senior*innen",,52.417791,13.314735
AWO Kreisverband Südwest e.V.,"Rentenberatung, kostenlose Erstrechtsberatung sowie Beratung zum Arbeitslosengeld II",Steglitz-Zehlendorf,14169,Mörchinger Straße 116,030 81294943,,https://www.awo-suedwest.de/beratung.html,,"Beratung für Erwachsene, Rechtsberatung für Erwachsene, Rentenberatung für Erwachsene",Deutsch,"Beratung,finanzielle Schwierigkeiten,Senior*innen",,52.437197,13.271952
AWO Kreisverband Mitte e.V.,AWO FrauenWohnen Berlin,Mitte,13359,Prinzenallee 25/26,030 45 79 80 60,,https://awo-mitte.de/frauen/,Frauenwohnen@awo-mitte.de,"Beratung für Frauen, Wohnstätte für Frauen, Wohnungslosenhilfe für Frauen",Deutsch,"Beratung,Frauen",,,
AWO Kreisverband Südost e.V.,Frauenberatung,Neukölln,12059,Sonnenallee 200,030 623 30 28,030 624 71 21,https://www.awo-südost.de/frauenberatung,Frauenberatung@awo-suedost.de,Beratung für Frauen,Deutsch,"Beratung,Frauen",,52.474995,13.453132
AWO Kreisverband Südost e.V.,"JuMP - Jugendcoaching/Medien, Motivation & Perspektive",Neukölln,12055,Lahnstraße 19,030 818 59 075,030 818 59 076,https://www.awo-südost.de/jugendberufshilfe-jump,jump@awo-suedost.de,"Jugendarbeit, Weiterbildung für Jugendliche, Jugendhilfe für Jugendliche",Deutsch,"Beratung,Jugend",,47.201444,15.650358
AWO Kreisverband Südost e.V.,Erziehungs - und Familienberatung,Neukölln,12053,Werbellinstraße 69,030 821 99 45,030 822 10 34,www.awo-suedost.de,familienberatung@awo-suedost.de,Beratung für Jugendliche und Familien,Deutsch,"Beratung,Jugend,Familie",,52.477658,13.428599
AWO Landesverband Berlin e.V.,Vormundschaften für ausländische Minderjährige,Tempelhof-Schöneberg,10827,Kärntener Straße 23,030 78 79 02 0,030 78 79 02 - 77,www.awoberlin.de,mail@awo-vormundschaften.de,Beratung für Jugendliche und Familien und Migrant*innen,Deutsch,"Beratung,Jugend,Migration,Familie",,52.478229,13.349141
AWO Kreisverband Spree-Wuhle e.V.,Stadtteiltreff Mahlsdorf-Süd,Marzahn-Hellersdorf,12623,Hultschiner Damm 98,030 56 69 83 95,030 56 69 83 9,https://www.awo-spree-wuhle.de/stadtteiltreff-mahlsdorf-sued/,hultschi@awo-spree-wuhle.de,"vielfältiges Angebot von sozialen und kulturellen Aktivitäten für alle Anwohner*innen und Interessierte in Mahlsdorf, sowie Marzahn-Hellersdorf",Deutsch,"Beratung,Kultur",,52.483697,13.602699
AWO Kreisverband Südost e.V.,AWO Familienzentrum KINUFA in Lichtenberg,Lichtenberg,10315,Charlottenstraße 3 a/b,030 848 561 28,030 512 215 4,https://www.awo-südost.de/kinder-familientreff,kinufa@awo-suedost.de,"Freizeitangebot für Kinder und Familien, Beratung für Familien",Deutsch,"Beratung,Kultur,Familie,Kinder",,,
AWO Kreisverband Spree-Wuhle e.V.,Stadtteiltreff Hellersdorf-Nord,Marzahn-Hellersdorf,12627,Kastanienallee 53,030 993 90 79,,https://www.awo-spree-wuhle.de/stadtteiltreff-hellersdorf-nord/,m-h@awo-spree-wuhle.de,Freizeitangebote für Senior*innen und Migrant*innen / Sozialberatung / Förderung von Selbsthilfeinitiativen,Deutsch,"Beratung,Kultur,Migration,Senior*innen,finanzielle Schwierigkeiten",,48.20219,16.540554
AWO Kreisverband Südost e.V.,„Sifahane“ – Beratung für Gesundheit und Migration,Neukölln,12055,Wipperstr. 25,030 671 28 914,,https://www.awo-südost.de/sifahane,sifahane@awo-berlin.de,Beratung für Migrant*innen,"Deutsch,Türkisch","Beratung,Migration",,52.470202,13.442974
AWO Landesverband Berlin e.V.,Fachstelle für Integration & Migration Charlottenburg-Wilmersdorf,Charlottenburg-Wilmersdorf,10717,Trautenaustraße 5,030 88472161,,www.awoberlin.de,fim-cw@awoberlin.de,Beratung für Migrant*innen,"Deutsch,Englisch,Türkisch,Russisch,Spanisch,Arabisch,Französisch","Beratung,Migration",,52.493312,13.329723
AWO Landesverband Berlin e.V.,Fachstelle für Integration & Migration Neukölln,Neukölln,12043,Donaustraße 113,030 623 10 68,030 747 580 37,www.awoberlin.de,mbe.neukoelln@awoberlin.de,Beratung für Migrant*innen,"Deutsch,Englisch,Türkisch,Spanisch","Beratung,Migration",,48.099543,16.303644
AWO Landesverband Berlin e.V.,Fachstelle für Integration & Migration Pankow,Pankow,10405,Fröbelstr. 17,"030 90 295 -59 -26, -27, -28, -29",030 20928 - 239,www.awoberlin.de,fim-pankow@awoberlin.de,Beratung für Migrant*innen,"Deutsch,Englisch,Polnisch,Spanisch,Französisch,Italienisch","Beratung,Migration",,48.29058,14.315167
AWO Landesverband Berlin e.V.,Fachstelle für Integration & Migration Tempelhof-Schöneberg,Tempelhof-Schöneberg,10827,Willmanndamm 12,030 22 19 226 00,030 22 19 226 51,www.awoberlin.de,fim@awoberlin.de,Beratung für Migrant*innen,"Deutsch,Englisch,Russisch,Türkisch,Polnisch,Arabisch,Französisch","Beratung,Migration",,52.490636,13.362847
AWO Landesverband Berlin e.V.,Migrationsberatung im AWO Begegnungszentrum Kreuzberg,Friedrichshain-Kreuzberg,10997,Adalbertstr. 23 a,030 695 356 22,030 695 356 34,www.begegnungszentrum.org,begegnungszentrum@awo-spree-wuhle.de,Beratung für Migrant*innen,"Deutsch,Englisch,Französisch,Italienisch,Spanisch,Türkisch,Serbisch,Kroatisch,Bosnisch","Beratung,Migration",,50.988959,11.019597
AWO Landesverband Berlin e.V.,Zentrum für Migration und Integration,Mitte,13357,Stettiner Straße 12,030 666 439 0,030 666 439 -10,www.awoberlin.de,zmi@awoberlin.de,Beratung für Migrant*innen,"Deutsch,Türkisch,Englisch,Arabisch,Französisch,Spanisch","Beratung,Migration",,47.929395,12.929256
AWO Landesverband Berlin e.V.,Vormundschaften für ausländische Minderjährige,Friedrichshain-Kreuzberg,10961,Blücherstraße 62,030 253 890,030 253 89 340,www.awoberlin.de,mail@awo-vormundschaften.de,Beratung für Jugendliche und Familien und Migrant*innen,Deutsch,"Beratung,Migration,Familie,Jugend",,52.495174,13.398255
AWO Kreisverband Berlin-Nordwest e.V.,"Renten-, Rechts- u. allg. Sozialberatung",Pankow,13127,Arnouxstraße 10,030 47 55 91 68,030 91149585,www.awo-nordwest.de,awo-nordwest-arnouxstr@t-online.de,"Beratung für Erwachsene, Rechtsberatung für Erwachsene, Rentenberatung für Erwachsene",Deutsch,"Beratung,Senior*innen",,52.607057,13.425731
AWO Kreisverband Südost e.V.,Renten- und Sozialrechtsberatung,Neukölln,12053,Werbellinstraße 69,030 821 99 45,,https://www.awo-südost.de/sozialberatung,,"Beratung für Erwachsene, Rentenberatung für Erwachsene",Deutsch,"Beratung,Senior*innen,finanzielle Schwierigkeiten",,52.477658,13.428599
AWO Kreisverband Südost e.V.,AWO Exchange – Generationsübergreifender Freiwilligendienst,Neukölln,12043,Goldammerstraße 34,030 32528637,030 284 726 320,www.awo-südost.de/exchange,exchange@awoberlin.de,Freiwilligenagentur der AWO Südost e.V.,Deutsch,Engagement,,52.432309,13.468403
AWO Kreisverband Mitte e.V.,AWO Mitte Sozial- und Gesundheitsdienst gGmbH Familienpflege,Mitte,13347,Iranische Straße 5,030 832 19 30 10,,www.awo-familienpflege.de,info@awo-familienpflege.de,"Familienhilfe für Familien, Dienstleistungen für Familien",Deutsch,Familie,,52.554169,13.367579
AWO Kreisverband Südost e.V.,Familienzentrum Droryplatz,Neukölln,12055,Kannerstr. 12,030 56 82 37 76,030 56 82 38 65,https://www.awo-südost.de/familienzentrum-in-neukoelln,faz-droryplatz@awo-suedost.de,Familienzentrum,Deutsch,Familie,,52.471669,13.447426
AWO Kreisverband Südost e.V.,"Familienzentrum im ""Haus der Begegnung Fennpfuhl“",Lichtenberg,10369,Otto-Marquardt-Str. 6-8,030 30 60 82 21,030 30 60 82 22,https://www.awo-südost.de/familienzentrum-fennpfuhl,familienzentrum@awo-suedost.de,Familienzentrum,Deutsch,Familie,,52.533004,13.471238
AWO Kreisverband Südost e.V.,"Stadtteilmütter im ""Haus der Begegnung Fennpfuhl“",Lichtenberg,10369,Otto-Marquardt-Str. 6-8,030 30608199,030 30608201,https://www.awo-südost.de/stadtteilmuetter,koordinierung-stm@awo-suedost.de,Stadtteilmütter,Deutsch,Familie,,52.533004,13.471238
AWO Kreisverband Südost e.V.,Projekt Elternbegleitung,verschiedene Standorte,10369,Otto-Marquardt-Str. 6-8,030 30608212,030 3060822,https://www.awo-südost.de/elternbegleitung,ebg@awo-suedost.de,Unterstützungsangebote für Eltern,Deutsch,Familie,,52.533004,13.471238
AWO Kreisverband Südwest e.V.,Projekt „Wundertüte“,Steglitz-Zehlendorf,,,030 851 76 13,,https://www.awo-suedwest.de/wundertuete.html,,"Schulsozialarbeit für Familien, Familienhilfe für Familien",Deutsch,Familie,,,
AWO Kreisverband Südost e.V.,"AWO ""Margaretentreff"" Begegnungsstätte für alle Generationen",Lichtenberg,10315,Zachertstraße 52,030 526 950 31,,https://www.awo-südost.de/begegnungsstaetten,,Begegnungsstätte für alle Generationen,Deutsch,"Familie,Senior*innen",,52.505706,13.507914
AWO Kreisverband Mitte e.V.,„Second Hemd“ I,Mitte,13357,Prinzenallee 74,030 49 910 547,,https://awo-mitte.de/frauen/#secondhemd,secondhemd@awo-mitte.de,Kleiderkammer für Kinder und Jugendliche und Erwachsene,Deutsch,finanzielle Schwierigkeiten,,52.555231,13.38347
AWO Kreisverband Mitte e.V.,„Second Hemd“ II,Mitte,13347,Plantagenstraße 43,030 49 910 547,,https://awo-mitte.de/frauen/#secondhemd,secondhemd@awo-mitte.de,Kleiderkammer für Kinder und Jugendliche und Erwachsene,Deutsch,finanzielle Schwierigkeiten,,52.149808,14.618288
AWO Kreisverband Südwest e.V.,"Bücherbasar, Trödel und AWO-Modeboutique",Steglitz-Zehlendorf,12207,Osdorfer Straße 121,030 713 870 90,,https://www.awo-suedwest.de/buecherbasar.html,,Kleiderkammer für Menschen mit sozialen Schwierigkeiten und Erwachsene,Deutsch,finanzielle Schwierigkeiten,,52.417791,13.314735
AWO Kreisverband Südwest e.V.,Kleiderkammer,Steglitz-Zehlendorf,12207,Osdorfer Straße 121,030 713 870 90,,https://www.awo-suedwest.de/kleiderkammer.html,,Kleiderkammer für Menschen mit sozialen Schwierigkeiten und Erwachsene,Deutsch,finanzielle Schwierigkeiten,,52.417791,13.314735
AWO Kreisverband Treptow-Köpenick e.V.,Soziale Kleiderkammer Treptow-Köpenick,Treptow-Köpenick,12587,Müggelseedamm 244,030 645 19 45,030 640 946 30,www.awo-treptow-koepenick.de,info@awo-tk.de,Kleiderkammer,Deutsch,finanzielle Schwierigkeiten,,52.447345,13.6344
AWO Kreisverband Spandau e.V.,AWO Schuldner- und Insolvenzberatung Spandau,Spandau,13595,Betckestraße 7,030 36 28 38 66,030 36 28 38 68,https://www.awo-spandau.de/beratung.html,verwaltung@awo-spandau-sib.de,Schuldner- und Insolvenzberatung für Menschen mit sozialen Schwierigkeiten und Erwachsene,Deutsch,"finanzielle Schwierigkeiten,Beratung",,52.520927,13.201329
AWO Kreisverband Spree-Wuhle e.V.,Kiez-Café,Friedrichshain-Kreuzberg,10247,Petersburger Straße 92,030 29 35 05 56,030 29 35 05 58,https://www.awo-spree-wuhle.de/kiez-cafe/,kiez-cafe@awo-spree-wuhle.de,"Das Kiez-Café ist ein Projekt für Wohnungslose und einkommensschwache Menschen. Es ist ein erster Anlaufpunkt im Krisenfall, aber auch ein Ort der Kommunikation und ein kiezverbundener Treffpunkt. Die Sozialberatung bietet Ihnen Unterstützung im Umgang mit Behörden, Beratung, Vermittlung sowie Hilfe bei drohender Wohnungslosigkeit.",Deutsch,"finanzielle Schwierigkeiten,Beratung,Wohnungsnotfallhilfe",,52.517297,13.452974
AWO Kreisverband Mitte e.V.,AWO Refugium Lichtenberg,Lichtenberg,,,030 680 79 02 70,,https://awo-mitte.de/gefluechtet-asyl/,awo-refugium-lichtenberg@awo-mitte.de,Unterkunft für Geflüchtete,Deutsch,Flucht/Asyl,,,
AWO Kreisverband Mitte e.V.,AWO Refugium Birkenhof,Spandau,,,030 37 58 539 0,,https://awo-mitte.de/gefluechtet-asyl/,awo-refugium-birkenhof@awo-mitte.de,Unterkunft für Geflüchtete,Deutsch,Flucht/Asyl,,,
AWO Kreisverband Mitte e.V.,AWO Refugium Ostpreußendamm,Steglitz-Zehlendorf,,,030 75 68 769 11,,https://awo-mitte.de/gefluechtet-asyl/,awo-refugium-ostpreussendamm@awo-mitte.de,Unterkunft für Geflüchtete,Deutsch,Flucht/Asyl,,,
AWO Kreisverband Mitte e.V.,AWO Wohnheim Treptow,Treptow-Köpenick,,,030 221 99 41 12,,https://awo-mitte.de/gefluechtet-asyl/,wh-treptow@awo-mitte.de,Unterkunft für Geflüchtete,Deutsch,Flucht/Asyl,,,
AWO Kreisverband Mitte e.V.,AWO Refugium für besonders schutzbedürftige Flüchtlinge Marie-Schlei-Haus,Reinickendorf,,,030 33 02 21 81 00,,https://awo-mitte.de/gefluechtet-asyl/,marie-schlei-haus@awo-mitte.de,Unterkunft für Geflüchtete,Deutsch,Flucht/Asyl,,,
AWO Kreisverband Mitte e.V.,AWO Refugium Gotenburger Straße,Mitte,,,030 221 92 21 24,,https://awo-mitte.de/gefluechtet-asyl/,awo-refugium-gotenburger@awo-mitte.de,Unterkunft für Geflüchtete,Deutsch,Flucht/Asyl,,,
AWO Kreisverband Mitte e.V.,AWO Refugium Freudstraße,Spandau,,,030 437 28 98 0,,https://awo-mitte.de/gefluechtet-asyl/,awo-refugium-freudstrasse@awo-mitte.de,Unterkunft für Geflüchtete,Deutsch,Flucht/Asyl,,,
AWO Kreisverband Mitte e.V.,AWO Refugium Hohentwielsteig,Steglitz-Zehlendorf,,,030 22 05 66 52,,https://awo-mitte.de/gefluechtet-asyl/,awo-refugium-hohentwielsteig@awo-mitte.de,Unterkunft für Geflüchtete,Deutsch,Flucht/Asyl,,,
AWO Kreisverband Mitte e.V.,AWO Beratungszentrum Mitte (Asylrechtsberatung),Mitte,13357,Exerzierstraße 16,030 40 39 49 28 0,,https://awo-mitte.de/gefluechtet-asyl/,asyl@awo-mitte.de,Asylrechtsberatung,Deutsch,"Flucht/Asyl,Beratung",,52.55404,13.374449
AWO Kreisverband Mitte e.V.,BNS Fachstelle für die Ermittlung und Beratung besonders schutzbedürftiger geflüchteter Menschen,Mitte,13347,Hochstädter Straße 1,0163 93 82 954,,https://awo-mitte.de/gefluechtet-asyl/,bns@awo-mitte.de,Sozialrechtsberatung für asylsuchende Menschen,Deutsch,"Flucht/Asyl,Beratung",,52.551829,13.365339
AWO Kreisverband Mitte e.V.,Frauenladen – Treffpunkt und Beratung,Mitte,13347,Groninger Straße 28,030 45 60 64 50,,https://awo-mitte.de/frauen/,Frauenladen@awo-mitte.de,"Freizeitangebot für Frauen, Beratung für Frauen",Deutsch,"Frauen,Beratung",,52.553025,13.362066
AWO Kreisverband Mitte e.V.,IsA-K – Freie Straffälligenhilfe für Frauen,Mitte,13357,Prinzenallee 74,030 49 91 05 47,,www.isa-k.de,info@isa-k.de,Beratung für Frauen,Deutsch,"Frauen,Beratung,Straffälligkeit",,52.555231,13.38347
AWO Kreisverband Mitte e.V.,Koordinierungsstelle für Alleinerziehende im Bezirk Mitte,Mitte,13347,Hochstädter Straße 1,030 49 30 14 28,,https://awo-mitte.de/alleinerziehende/,alleinerziehend@awo-mitte.de,Koordinierungsstelle für Alleinerziehende im Bezirk Mitte,Deutsch,"Frauen,Familie,Beratung",,52.551829,13.365339
AWO Kreisverband Mitte e.V.,Empowerment für geflüchtete Frauen,Mitte,13357,Prinzenallee 74,0151 238 87 733,,https://awo-mitte.de/,empowerment@awo-mitte.de,Angebot an Frauen mit Fluchtbiographie,Deutsch,"Frauen,Migration,Beratung",,52.555231,13.38347
AWO Kreisverband Spree-Wuhle e.V.,"Notübernachtung für Frauen ""Mitten im Kiez""",Friedrichshain-Kreuzberg,10247,Petersburger Straße 92,030 293 505 57,,https://www.awo-spree-wuhle.de/notuebernachtung/,notuebernachtung@awo-spree-wuhle.de,"niedrigschwellig Schlafplätze für Frauen*, die von Wohnungs- und Obdachlosigkeit betroffenen sind",Deutsch,"Frauen,Wohnungsnotfallhilfe",,52.517297,13.452974
AWO Kreisverband Mitte e.V.,AWO Kreisverband Berlin-Mitte e.V.,Mitte,13347,Hochstädter Str. 1,030 455 087 0,,www.awo-mitte.de,info@awo-mitte.de,Geschäftsstelle,Deutsch,Geschäftsstelle,,52.551829,13.365339
AWO Kreisverband Spandau e.V.,AWO Kreisverband Spandau e.V.,Spandau,13593,Rodensteinstraße 11,030 565 99 00 0,030 565 99 00-20,www.awo-spandau.de,info@awo-spandau.de,Geschäftsstelle,Deutsch,Geschäftsstelle,,52.511933,13.180017
AWO Kreisverband Spree-Wuhle e.V.,AWO City gGmbH,Friedrichshain-Kreuzberg,10249,Platz der Vereinten Nationen 1,030 200 53 428,030 200 53 868,www.awo-city.de,info@awo-city.de,Geschäftsstelle,Deutsch,Geschäftsstelle,,48.2323362,16.4152338
AWO Kreisverband Spree-Wuhle e.V.,Geschäftsstelle,Friedrichshain-Kreuzberg,10247,Rigaer Straße 55b,030 420 890 34,030 420 892 99,https://www.awo-spree-wuhle.de/ueber-uns/,buero@awo-spree-wuhle.de,Geschäftsstelle,Deutsch,Geschäftsstelle,,52.515222,13.474104
AWO Kreisverband Südost e.V.,AWO Kreisverband Südost e.V.,Neukölln,12043,Erkstr. 1,030 613 963 0,030 613 963 59,https://www.awo-suedost.de,info@awo-suedost.de,Geschäftsstelle,Deutsch,Geschäftsstelle,,52.480862,13.436075
AWO Kreisverband Südwest e.V.,AWO Kreisverband Südwest e.V.,Steglitz-Zehlendorf,14169,Mörchinger Str. 116,030 845 921 14,030 845 921 15,www.awo-suedwest.de,zehlendorf@awo-suedwest.de,Geschäftsstelle,Deutsch,Geschäftsstelle,,52.437197,13.271952
AWO Kreisverband Südwest e.V.,"AWO Kreisverband Südwest e.V., Regionalbüro Schöneberg",Tempelhof-Schöneberg,10781,Goltzstr. 19,030 200 517 65,030 200 517 73,www.awo-suedwest.de,schoeneberg@awo-suedwest.de,Geschäftsstelle,Deutsch,Geschäftsstelle,,52.383132,13.400111
AWO Kreisverband Südwest e.V.,"AWO Kreisverband Südwest e.V., Regionalbüro Steglitz",Steglitz-Zehlendorf,12207,Osdorfer Str. 121,030 713 870 90,030 713 917 51,www.awo-suedwest.de,steglitz@awo-suedwest.de,Geschäftsstelle,Deutsch,Geschäftsstelle,,52.417791,13.314735
AWO Kreisverband Südwest e.V.,"AWO Kreisverband Südwest e.V., Regionalbüro Tempelhof ""Spukvilla""",Tempelhof-Schöneberg,12103,Albrechtstr. 110,030 751 508 9,030 752 871 8,www.awo-suedwest.de,schoeneberg@awo-suedwest.de,Geschäftsstelle,Deutsch,Geschäftsstelle,,48.315588,16.314852
AWO Kreisverband Treptow-Köpenick e.V.,AWO Kreisverband Treptow-Köpenick e.V.,Treptow-Köpenick,12587,Müggelseedamm 244,030 645 19 45,030 640 946 30,www.awo-treptow-koepenick.de,buero@awo-tk.de,Geschäftsstelle,Deutsch,Geschäftsstelle,,52.447345,13.6344
AWO Landesverband Berlin e.V.,AWO Landesverband Berlin e.V.,Friedrichshain-Kreuzberg,10961,Blücherstraße 62,030 253 890,,www.awoberlin.de,info@awoberlin.de,Geschäftsstelle,Deutsch,Geschäftsstelle,,52.495174,13.398255
AWO pro:mensch gGmbH,AWO pro:mensch gGmbH,Tempelhof-Schöneberg,12277,Wilhelm-von-Siemens-Straße 23 (Aufgang E),030 233 27 59 0,030 233 27 59 99,www.awo-promensch.de,info@awo-promensch.de,Geschäftsstelle,Deutsch,"Geschäftsstelle,Mitgliedsorganisation",,52.429568,13.381516
AWO Kreisverband Berlin-Nordwest e.V.,Rolli-Treff,Pankow,13127,Arnouxstraße 10,030 47 55 91 68,,https://www.awo-nordwest.de/rolli-treff/,awo-nordwest-arnouxstr@tonline.De,Freizeitangebot für Menschen mit Behinderung,Deutsch,Inklusion,,52.607057,13.425731
AWO Kreisverband Mitte e.V.,AWO Wohngemeinschaft Hochstädter Straße,Mitte,13347,Hochstädter Straße 1,030 84 85 52 66,,https://awo-mitte.de/behindertenhilfe/,wgh@awo-mitte.de,Betreutes Wohnen für Menschen mit Behinderung,Deutsch,Inklusion,,52.551829,13.365339
AWO Kreisverband Mitte e.V.,Betreutes Einzelwohnen,Mitte,10551,Turmstraße 71,030 39 88 60 27,,https://awo-mitte.de/behindertenhilfe/,bew@awo-mitte.de,Betreutes Wohnen für Menschen mit Behinderung,Deutsch,Inklusion,,48.274811,14.317008
AWO Kreisverband Spree-Wuhle e.V.,Betreutes Paar- und Einzelwohnen Friedrichshain-Kreuzberg und Marzahn-Hellersdorf,Friedrichshain-Kreuzberg,10249,Platz der Vereinten Nationen 1,030 200 53 428,030 200 53-868,www.awo-city.de,bew@awo-city.de,Betreutes Wohnen für Menschen mit Behinderung,Deutsch,Inklusion,,48.2323362,16.4152338
AWO Kreisverband Spree-Wuhle e.V.,Betreutes Paar- und Einzelwohnen Spandau,Spandau,13583,Seegefelder Straße 90,030 3229 3348,030 200 53-868,www.awo-city.de,bew-spandau@awo-city.de,Betreutes Wohnen für Menschen mit Behinderung,Deutsch,Inklusion,,52.538323,13.184365
AWO Kreisverband Spree-Wuhle e.V.,Wohngemeinschaft Friedenstraße,Friedrichshain-Kreuzberg,10249,Friedenstraße,030 200 53 428,030 200 53-869,www.awo-city.de,info@awo-city.de,Betreutes Wohnen für Menschen mit Behinderung,Deutsch,Inklusion,,46.9907445,16.2607645
AWO Kreisverband Spree-Wuhle e.V.,Wohngemeinschaft Gitschiner Straße,Friedrichshain-Kreuzberg,10969,Gitschiner Straße,030 200 53 428,030 200 53-870,www.awo-city.de,info@awo-city.de,Betreutes Wohnen für Menschen mit Behinderung,Deutsch,Inklusion,,52.4985147,13.4024847
AWO Kreisverband Spree-Wuhle e.V.,Wohngemeinschaft Nauener Straße,Spandau,13583,Nauener Straße,030 200 53 428,030 200 53-871,www.awo-city.de,info@awo-city.de,Betreutes Wohnen für Menschen mit Behinderung,Deutsch,Inklusion,,52.8302494,13.7552327
AWO Kreisverband Spree-Wuhle e.V.,Wohngemeinschaft Ritterstraße,Friedrichshain-Kreuzberg,10969,Ritterstraße,030 200 53 428,030 200 53-872,www.awo-city.de,info@awo-city.de,Betreutes Wohnen für Menschen mit Behinderung,Deutsch,Inklusion,,47.9741553,14.4217732
AWO Kreisverband Spree-Wuhle e.V.,Wohngemeinschaft Stralauer Allee,Friedrichshain-Kreuzberg,10245,Stralauer Allee,030 200 53 428,030 200 53-873,www.awo-city.de,info@awo-city.de,Betreutes Wohnen für Menschen mit Behinderung,Deutsch,Inklusion,,52.4999689,13.4550065
AWO Kreisverband Spree-Wuhle e.V.,Wohngemeinschaft Wilhelmstraße,Friedrichshain-Kreuzberg,10963,Wilhelmstr. Nähe Stresemannstr.,030 200 53 428,030 200 53-873,www.awo-city.de,info@awo-city.de,Betreutes Wohnen für Menschen mit Behinderung,Deutsch,Inklusion,,48.1767681,16.3342672
AWO Kreisverband Spree-Wuhle e.V.,Wohngemeinschaft Anhalter Bahnhof,Friedrichshain-Kreuzberg,10963,Wilhelmstr. Nähe Anhalter Bf.,030 200 53 428,030 200 53-874,www.awo-city.de,info@awo-city.de,Betreutes Wohnen für Menschen mit Behinderung,Deutsch,Inklusion,,51.8027191,7.0456079
AWO Kreisverband Südost e.V.,AWO Hort „Sonnenkids“,Neukölln,12045,Sonnenallee 30 + 32,030 62 00 59 76,030 627 225 723,https://www.awo-südost.de/hort-sonnenkids,info-sonnenkids@awo-suedost.de,Offene Ganztagsbetreuung,Deutsch,Inklusion,,48.224861,16.503055
AWO Kreisverband Südost e.V.,AWO Wohngemeinschaften,Neukölln,12043,Erkstraße 1,030 613 963 37,,https://www.awo-südost.de/wg,mike-früh@awo-suedost.de,Betreutes Wohnen für Menschen mit Behinderung,Deutsch,Inklusion,,52.480862,13.436075
AWO Kreisverband Südost e.V.,Betreutes Wohnen (Neukölln),Neukölln,12053,Falkstraße 27,030 628 422 95,030 666 494 95,https://www.awo-südost.de/bew,bew@awo-suedost.de,Betreutes Wohnen für Menschen mit Behinderung,Deutsch,Inklusion,,47.972355,16.216848
AWO Kreisverband Südost e.V.,FALK-Club,Neukölln,12053,Falkstraße 27,030 625 40 66,030 627 20 548,https://www.awo-südost.de/falkclub,falk-club@awo-suedost.de,Freizeitangebot für Menschen mit Behinderung,Deutsch,Inklusion,,47.972355,16.216848
AWO Kreisverband Südwest e.V.,Betreutes Einzelwohnen,Steglitz-Zehlendorf,12103,Albrechtstraße 110,030 70 00 90 15,030 70 00 90-25,https://www.awo-suedwest.de/behindertenhilfe.html,marion.kurze@awo-suedwest.de,Betreutes Wohnen für Menschen mit Behinderung,Deutsch,Inklusion,,48.315588,16.314852
AWO Kreisverband Südwest e.V.,Wohngemeinschaft Hauptstraße,Tempelhof-Schöneberg,,,030 70 00 90 15,,https://www.awo-suedwest.de/behindertenhilfe.html,marion.kurze@awo-suedwest.de,Betreutes Wohnen für Menschen mit Behinderung,Deutsch,Inklusion,,,
AWO Kreisverband Südwest e.V.,Wohngemeinschaft Mariendorfer Damm,Tempelhof-Schöneberg,,,030 70 00 90 15,,www.awo-suedwest.de,,Betreutes Wohnen für Menschen mit Behinderung,Deutsch,Inklusion,,,
AWO Kreisverband Südwest e.V.,Wohngemeinschaften Monopolstraße,Tempelhof-Schöneberg,,,030 70 00 90 15,,https://www.awo-suedwest.de/behindertenhilfe.html,,Betreutes Wohnen für Menschen mit Behinderung,Deutsch,Inklusion,,,
AWO Kreisverband Südwest e.V.,Wohngemeinschaften Ullsteinstraße,Tempelhof-Schöneberg,,,030 70 00 90 15,,https://www.awo-suedwest.de/behindertenhilfe.html,,Betreutes Wohnen für Menschen mit Behinderung,Deutsch,Inklusion,,,
AWO Kreisverband Treptow-Köpenick e.V.,Wohngemeinschaft Müggelseedamm,Treptow-Köpenick,12587,Müggelseedamm 244,030 640 93 580,030 64 19 76 27,www.awo-treptow-koepenick.de,wohngemeinschaft@awo-tk.de,Wohn- und Freizeitangebote für Menschen mit Behinderung,Deutsch,Inklusion,,52.447345,13.6344
AWO pro:mensch gGmbH,Therapeutisches Übergangswohnheim Steglitz,Steglitz-Zehlendorf,12169,Steglitzer Damm 69,030 43 777 99 0,,https://www.awo-promensch.de/integration/tuewh-steglitz/,uewhsteglitz@awo-promensch.de,Wohnstätte für Menschen mit Behinderung,Deutsch,Inklusion,,52.450032,13.348533
AWO Kreisverband Spree-Wuhle e.V.,„Co-Beratung“ nach Anmeldung,verschiedene Standorte,,,030 200 53 429,030 200 53-875,www.awo-city.de,info@awo-city.de,Beratung für Menschen mit Behinderung und Migrantinnen und Migranten,Deutsch,"Inklusion,Migration",,,
AWO Kreisverband Mitte e.V.,"Tagespflege ""Sommergarten""",Mitte,13347,Reinickendorfer Straße 58 a,030 45 60 60 50,,https://awo-mitte.de/senioren-pflege/,tpe-sommergarten@awo-mitte.de,Tagespflege für Seniorinnen und Senioren und Menschen mit Pflegebedarf,Deutsch,"Inklusion,Senior*innen",,50.622092,9.445231
AWO Kreisverband Mitte e.V.,Leben und Lernen im Kiez - LeLeKie,Mitte,13347,Malplaquetstraße 5a,030 45 02 57 53,,https://awo-mitte.de/kinder-jugend/,awo-lelekie@awo-mitte.de,Jugendarbeit für Kinder und Jugendliche,Deutsch,Jugend,,52.549702,13.361616
AWO Kreisverband Südost e.V.,AWO Brückenbauer an der ISS Hermann-von-Helmholtz,Neukölln,12353,Wutzkyallee 68 - 73,030 609 717 41,030 609 717 38,,jens-priesen@awo-suedost.de,Berufsorientierung,Deutsch,"Jugend,Beratung",,45.199368,-67.311854
AWO pro:mensch gGmbH,Betreutes Einzelwohnen,Marzahn-Hellersdorf,12623,Hultschiner Damm 98,030 671 22 434,,https://www.awo-promensch.de/hilfen-zur-erziehung/betreutes-wohnen/,hze-stationaer@awo-promensch.de,Betreutes Wohnen für Jugendliche,Deutsch,"Jugend,Familie",,52.483697,13.602699
AWO Kreisverband Mitte e.V.,Kinder- und Jugendclub Berlin Mitte e.V.,Mitte,13347,Bellermannstr. 65,030 45 50 87 37,,https://awo-mitte.de/kinder-jugend/,bellermann@awo-mitte.de,Freizeitangebot für Kinder und Jugendliche,Deutsch,"Jugend,Kinder",,52.549742,13.392444
AWO Kreisverband Spree-Wuhle e.V.,"""Hippy"" - Unterstützung von Eltern mit Vorschulkindern",Friedrichshain-Kreuzberg,10997,Adalbertstraße 23a,030 695 658 85 29,030 695 356 35,https://www.awo-spree-wuhle.de/opstapje-hippy/,h.dreibholz@awo-spree-wuhle.de,Unterstützung von Eltern mit Vorschulkindern/ Spiel- und Lernprogramm für Kinder ab 3 Jahren,"Deutsch,Türkisch","Kinder,Familie",,52.503797,13.421551
AWO Kreisverband Spree-Wuhle e.V.,"""Kita-Einstieg""",Friedrichshain-Kreuzberg,10997,Adalbertstraße 23a,030 695 35 623,030 695 356 35,https://www.awo-spree-wuhle.de/kita-einstieg/,kita-einstieg@awo-spree-wuhle.de,"Niedrigschwellige Angebote gefördert, die den Einstieg in die Kindertagesbetreuung erleichtern.",Deutsch,"Kinder,Familie",,52.503797,13.421551
AWO pro:mensch gGmbH,EWG Gulliver – Das Kinderhaus für kleine Riesen,Marzahn-Hellersdorf,12683,Allee der Kosmonauten 120a,030 544 31 651,030 544 31 904,https://www.awo-promensch.de/hilfen-zur-erziehung/betreutes-wohnen/,hze-stationaer@awo-promensch.de,"Betreutes Wohnen für Kinder, Hilfen zur Erziehung für Familien, Wohnstätte für Kinder",Deutsch,"Kinder,Familie",,52.529236,13.549851
AWO pro:mensch gGmbH,Gekko – Gruppe für Kinder aus Scheidungsfamilien. In Kooperation mit JAO e.V.,Marzahn-Hellersdorf,12623,Hultschiner Damm 98,030 671 22 434,030 567 01 395,https://www.awo-promensch.de/hilfen-zur-erziehung/betreutes-wohnen/,hze-stationaer@awo-promensch.de,Familienhilfe für Kinder und Familien,Deutsch,"Kinder,Familie",,52.483697,13.602699
AWO Kreisverband Mitte e.V.,AWO Kita “Maulwurf”,Mitte,10785,Lützowstr. 83-85,030 26 18 950,,https://awo-mitte.de/kinder-jugend/#kitas,maulwurf@awo-mitte.de,Kindertagesstätte,Deutsch,"Kinder,Familie,Kita/Ganztag",,47.2711845,11.4096679
AWO Kreisverband Mitte e.V.,AWO Kita “Wassertropfen”,Friedrichshain-Kreuzberg,10999,Oranienstraße 192,030 614 48 29,,https://awo-mitte.de/kinder-jugend/#kitas,wassertropfen@awo-mitte.de,Kindertagesstätte,Deutsch,"Kinder,Familie,Kita/Ganztag",,52.50014,13.422522
AWO Kreisverband Mitte e.V.,AWO Kita „Am Spreebogen“,Mitte,10559,Alt Moabit 98,030 44 72 40 01,,https://awo-mitte.de/kinder-jugend/#kitas,spreebogen@awo-mitte.de,Kindertagesstätte,Deutsch,"Kinder,Familie,Kita/Ganztag",,52.524774,13.346485
AWO Kreisverband Mitte e.V.,AWO Kita „Europa Kita“,Friedrichshain-Kreuzberg,10961,Blücherstraße 46/47,030 2 51 34 42,,https://awo-mitte.de/kinder-jugend/#kitas,europakita@awo-mitte.de,Kindertagesstätte,"Deutsch,Türkisch","Kinder,Familie,Kita/Ganztag",,,
AWO Kreisverband Mitte e.V.,AWO Kita „Kastanie“,Friedrichshain-Kreuzberg,10999,Reichenberger Straße 122,030 611 45 25,,https://awo-mitte.de/kinder-jugend/#kitas,kastanie@awo-mitte.de,Kindertagesstätte,Deutsch,"Kinder,Familie,Kita/Ganztag",,52.495294,13.431845
AWO Kreisverband Mitte e.V.,AWO Kita „Löwenzahn“,Friedrichshain-Kreuzberg,10961,Baerwaldstraße 56,030 251 20 26,,https://awo-mitte.de/kinder-jugend/#kitas,loewenzahn@awo-mitte.de,Kindertagesstätte,Deutsch,"Kinder,Familie,Kita/Ganztag",,52.492673,13.402552
AWO Kreisverband Mitte e.V.,AWO Kita Pinocchio,Mitte,13347,Iranische Straße 6a,030 3252 87 76,,https://awo-mitte.de/kinder-jugend/#kitas,pinocchio@awo-mitte.de,Kindertagesstätte,Deutsch,"Kinder,Familie,Kita/Ganztag",,52.555331,13.366837
AWO Kreisverband Mitte e.V.,AWO Kita „Schmetterling“,Mitte,10551,Turmstraße 71,030 39 74 19 95,,https://awo-mitte.de/kinder-jugend/#kitas,schmetterling@awo-mitte.de,Kindertagesstätte,Deutsch,"Kinder,Familie,Kita/Ganztag",,48.274811,14.317008
AWO Kreisverband Mitte e.V.,AWO Kita „Sonnenblume“,Mitte,13347,Reinickendorfer Straße 62,030 455 66 50,,https://awo-mitte.de/kinder-jugend/#kitas,sonnenblume@awo-mitte.de,Kindertagesstätte,Deutsch,"Kinder,Familie,Kita/Ganztag",,52.554343,13.365652
AWO Kreisverband Spandau e.V.,AWO Kita Feldhäuschen,Spandau,13591,Brunsbütteler Damm 413,030 363 00 68,030 37 58 94 61,https://www.awo-spandau.de/kinder-familie/kindertagesstaette-feldhaeuschen.html,kita-feldhaeuschen@awo-spandau.de,Kindertagesstätte,Deutsch,"Kinder,Familie,Kita/Ganztag",,52.534219,13.135899
AWO Kreisverband Spandau e.V.,AWO Kita Kladow,Spandau,14089,Mascha-Kaléko-Weg 3-3b,030 365 20 94,030 36 43 34 64,https://www.awo-spandau.de/kinder-familie/kindertagesstaette-kladow.html,kita-kladow@awo-spandau.de,Kindertagesstätte,Deutsch,"Kinder,Familie,Kita/Ganztag",,52.4587836,13.1557774
AWO Kreisverband Spandau e.V.,AWO Kita Landstadt Gatow,Spandau,14089,Saint-Exupéry-Straße 10,030 36 99 69 90,030 36 99 69 91,https://www.awo-spandau.de/kinder-familie/kindertagesstaette-landstadt-gatow.html,kita-landstadt-gatow@awo-spandau.de,Kindertagesstätte,Deutsch,"Kinder,Familie,Kita/Ganztag",,52.47075,13.130252
AWO Kreisverband Spandau e.V.,AWO Kita Sternschnuppe,Spandau,13583,Falkenseer Chaussee 8,030 375 49 60,030 30 83 70 63,https://www.awo-spandau.de/kinder-familie/kindertagesstaette-sternschnuppe.html,kita-sternschnuppe@awo-spandau.de,Kindertagesstätte,Deutsch,"Kinder,Familie,Kita/Ganztag",,52.54638,13.192125
AWO Kreisverband Spandau e.V.,AWO Kita Wundertüte,Spandau,13585,Neuendorfer Straße 56,030 336 43 87,030 33 00 23 18,https://www.awo-spandau.de/kinder-familie/kindertagesstaette-wundertuete.html,kita-wundertuete@awo-spandau.de,Kindertagesstätte,Deutsch,"Kinder,Familie,Kita/Ganztag",,52.552508,13.210184
AWO Kreisverband Spandau e.V.,AWO Kita Zwergenwinkel,Spandau,13591,Zweiwinkelweg 12-14,030 37 15 17 61,030 37 15 17 83,https://www.awo-spandau.de/kinder-familie/kindertagesstaette-zwergenwinkel.html,kita-zwergenwinkel@awo-spandau.de,Kindertagesstätte,Deutsch,"Kinder,Familie,Kita/Ganztag",,52.5318105,13.1463308
AWO Kreisverband Spandau e.V.,Hort der Grundschule am Eichenwald (Offener Ganztagsbetrieb),Spandau,13587,Gaismannshofer Weg 2,030 367 58 11 20,030 367 58 11 21,https://www.awo-spandau.de/jugend-schule/offener-ganztagsbetrieb-an-grundschulen/offener-ganztagsbetrieb-an-der-grundschule-am-eichenwald.html,hort-eichenwald@awo-spandau.de,Hort ,Deutsch,"Kinder,Familie,Kita/Ganztag",,52.558366,13.199056
AWO Kreisverband Spandau e.V.,Hort der Mary-Poppins-Grundschule (Offener Ganztagsbetrieb),Spandau,14089,Charles-Lindbergh-Straße 74,030 36 28 97 59,030 36 28 98 01,https://www.awo-spandau.de/jugend-schule/offener-ganztagsbetrieb-an-grundschulen/offener-ganztagsbetrieb-an-der-mary-poppins-grundschule.html,hort-landstadt-gatow@awo-spandau.de,Hort,Deutsch,"Kinder,Familie,Kita/Ganztag",,52.472629,13.12519
AWO Kreisverband Spree-Wuhle e.V.,"Kita ""Galileo""",Marzahn-Hellersdorf,12627,Naumburger Ring 25,030 498 976 00,030 667 667 11,https://www.awo-spree-wuhle.de/galileo/,galileo@awo-spree-wuhle.de,Kindertagesstätte,Deutsch,"Kinder,Familie,Kita/Ganztag",,52.53835,13.612903
AWO Kreisverband Spree-Wuhle e.V.,"Kita ""Wuhlehopser""",Marzahn-Hellersdorf,12687,Wuhletalstraße 70,030 936 640 61,,https://www.awo-spree-wuhle.de/wuhlehopser/,wuhlehopser@awo-spree-wuhle.de,Kindertagesstätte,Deutsch,"Kinder,Familie,Kita/Ganztag",,52.559914,13.56645
AWO Kreisverband Spree-Wuhle e.V.,"Kita ""Leonardo""",Friedrichshain-Kreuzberg,10243,Kleine Markusstraße 9,030 200 952 70,030 246 256 93,https://www.awo-spree-wuhle.de/leonardo/,leonardo@awo-spree-wuhle.de,Kindertagesstätte,Deutsch,"Kinder,Familie,Kita/Ganztag",,52.514744,13.427028
AWO Kreisverband Spree-Wuhle e.V.,"Kita ""Lingulino""",Friedrichshain-Kreuzberg,10961,Solmsstraße 1,030 364 470 01,,https://www.awo-spree-wuhle.de/lingulino/,lingulino@awo-spree-wuhle.de,Kindertagesstätte,Deutsch,"Kinder,Familie,Kita/Ganztag",,52.494185,13.393095
AWO Kreisverband Spree-Wuhle e.V.,"Kita ""Sonnenschein""",Friedrichshain-Kreuzberg,10963,Wartenburgstraße 6,030 50 58 78 01,,https://www.awo-spree-wuhle.de/sonnenschein/,sonnenschein@awo-spree-wuhle.de,Kindertagesstätte,Deutsch,"Kinder,Familie,Kita/Ganztag",,52.495696,13.381252
AWO Kreisverband Spree-Wuhle e.V.,"Kita ""Tausendfüßchen""",Friedrichshain-Kreuzberg,10247,Liebigstraße 30/ 31,030 426 78 75,030 325 370 55,https://www.awo-spree-wuhle.de/tausendfuesschen/,tausendfuesschen@awo-spree-wuhle.de,Kindertagesstätte,Deutsch,"Kinder,Familie,Kita/Ganztag",,,
AWO Kreisverband Spree-Wuhle e.V.,"Kita ""Weidenkätzchen""",Friedrichshain-Kreuzberg,10247,Weidenweg 68,030 422 24 28,,https://www.awo-spree-wuhle.de/weidenkaetzchen/,weidenkaetzchen@awo-spree-wuhle.de,Kindertagesstätte,Deutsch,"Kinder,Familie,Kita/Ganztag",,48.348565,16.845935
AWO Kreisverband Spree-Wuhle e.V.,"Kita ""Wichtelbühne""",Friedrichshain-Kreuzberg,10247,Weidenweg 78/ Liebigstraße 29,030 417 248 51,030 417 248 52,https://www.awo-spree-wuhle.de/wichtelbuehne/,wichtelbuehne@awo-spree-wuhle.de,Kindertagesstätte,Deutsch,"Kinder,Familie,Kita/Ganztag",,,
AWO Kreisverband Südost e.V.,AWO Kita „Du und Ich“,Neukölln,12055,Kanner Straße 12,030 568 23 640,030 56 82 38 65,https://www.awo-südost.de/kita-du-und-ich,info-duundich@awo-suedost.de,Kindertagesstätte,Deutsch,"Kinder,Familie,Kita/Ganztag",,52.471669,13.447426
AWO Kreisverband Südost e.V.,AWO Kita „Freie Scholle“,Reinickendorf,13509,Erholungsweg 1,030 433 81 54,030 417 44 359,https://www.awo-südost.de/kita-freie-scholle,info-freiescholle@awo-suedost.de,Kindertagesstätte,Deutsch,"Kinder,Familie,Kita/Ganztag",,52.598103,13.305689
AWO Kreisverband Südost e.V.,AWO Kita „Grashüpfer“,Lichtenberg,10318,Honnefer Straße 25,030 50 986 51,030 50 89 85 19,https://www.awo-südost.de/kita-grashuepfer,info-grashuepfer@awo-suedost.de,Kindertagesstätte,Deutsch,"Kinder,Familie,Kita/Ganztag",,52.485204,13.534121
AWO Kreisverband Südost e.V.,AWO Kita „Hand in Hand – El Ele“,Neukölln,12049,Weisestraße 25,030 621 40 02,030 814 68 644,https://www.awo-südost.de/kita-elele,info-elele@awo-suedost.de,Kindertagesstätte,"Deutsch,Türkisch","Kinder,Familie,Kita/Ganztag",,52.475125,13.424408
AWO Kreisverband Südost e.V.,AWO Kita „Große Kinderwelt“,Reinickendorf,13403,Klixstraße 31d,030 41 789 00,030 41 789 019,https://www.awo-südost.de/kita-kinderwelt,info-kinderwelt@awo-suedost.de,Kindertagesstätte,Deutsch,"Kinder,Familie,Kita/Ganztag",,52.569188,13.308471
AWO Kreisverband Südost e.V.,AWO Kita „Kleine Kinderwelt“,Reinickendorf,13403,Klixstraße 27,030 67 46 29 72,,https://www.awo-südost.de/kita-kinderwelt-kontakt,info-kinderwelt@awo-suedost.de,Kindertagesstätte,Deutsch,"Kinder,Familie,Kita/Ganztag",,52.569861,13.309691
AWO Kreisverband Südost e.V.,AWO Kita „Märcheninsel“,Lichtenberg,10315,Charlottenstraße 3a-b,030 51 00 95 08,030 51 22 154,https://www.awo-südost.de/kita-maercheninsel,info-maercheninsel@awo-suedost.de,Kindertagesstätte,Deutsch,"Kinder,Familie,Kita/Ganztag",,51.745583,14.633565
AWO Kreisverband Südost e.V.,AWO Kita „Müggelzwerge“,Treptow-Köpenick,12587,Peter-Hille-Straße 4,030 645 56 77,030 64 09 28 45,https://www.awo-südost.de/kita-mueggelzwerge,info-mueggelzwerge@awo-suedost.de,Kindertagesstätte,Deutsch,"Kinder,Familie,Kita/Ganztag",,52.454662,13.620813
AWO Kreisverband Südost e.V.,AWO Kita „Rappelkiste“,Neukölln,12359,Wesenberger Ring 13,030 602 12 60,030 666 252 28,https://www.awo-südost.de/kita-rappelkiste,info-rappelkiste@awo-suedost.de,Kindertagesstätte,Deutsch,"Kinder,Familie,Kita/Ganztag",,52.440793,13.441977
AWO Kreisverband Südost e.V.,"AWO Kita ""Krümelkiste""",Neukölln,12051,Bendastraße 11 d,030 627 34 330,030 666 204 25,https://www.awo-südost.de/kita-kruemelkiste,info-kruemelkiste@awo-suedost.de,Kindertagesstätte,Deutsch,"Kinder,Familie,Kita/Ganztag",,52.393083,13.096217
AWO Kreisverband Südost e.V.,AWO Kita „Schneckenhaus“,Reinickendorf,13507,Bernauer Straße 136,030 43 55 10 74,030 43 55 10 75,https://www.awo-südost.de/kita-schneckenhaus,info-schneckenhaus@awo-suedost.de,Kindertagesstätte,Deutsch,"Kinder,Familie,Kita/Ganztag",,52.575946,13.276446
AWO Kreisverband Südost e.V.,AWO Kita „Sonnenkinder“,Treptow-Köpenick,12489,Zinsgutstraße 38,030 678 95 875,030 67 89 58 76,https://www.awo-südost.de/kita-sonnenkinder,info-sonnenkinder@awo-suedost.de,Kindertagesstätte,Deutsch,"Kinder,Familie,Kita/Ganztag",,52.43756,13.556618
AWO Kreisverband Südost e.V.,AWO Kita „Spatzennest“,Treptow-Köpenick,12437,Dammweg 155/157,030 532 44 53 oder 030 532 83 75,030 530 27 671,https://www.awo-südost.de/kita-spatzennest,info-spatzennest@awo-suedost.de,Kindertagesstätte,Deutsch,"Kinder,Familie,Kita/Ganztag",,,
AWO Kreisverband Südost e.V.,AWO Kita „Villa Kunterbunt“,Neukölln,12045,Weserstraße 198,030 623 40 11,030 818 557 96,https://www.awo-südost.de/kita-villa-kunterbunt,info-kunterbunt@awo-suedost.de,Kindertagesstätte,Deutsch,"Kinder,Familie,Kita/Ganztag",,52.487201,13.43295
AWO Kreisverband Südost e.V.,AWO Kita „Wilde 13“,Neukölln,12355,Jeanette-Wolff-Straße 13,030 669 928 20,030 669 928 23,https://www.awo-südost.de/kita-wilde-13,info-wilde13@awo-suedost.de,Kindertagesstätte,Deutsch,"Kinder,Familie,Kita/Ganztag",,52.402854,13.509885
AWO Kreisverband Südost e.V.,"AWO Hort „Elfenfels""",Neukölln,12355,Jeannette-Wolff-Straße 17,030 6 69 19 88,030 665 29 537,https://www.awo-südost.de/elfenfels,info-elfenfels@awo-suedost.de,Offene Ganztagsbetreuung,Deutsch,"Kinder,Familie,Kita/Ganztag",,52.402228,13.508254
AWO pro:mensch gGmbH,AWO Kita „Apfelbäumchen“,Reinickendorf,13509,Oeserstraße 8,030 43 35 108,030 43 77 47 08,https://www.awo-promensch.de/kindertagesstaetten/kita-apfelbaeumchen/,kita.apfelbaeumchen@awo-promensch.de,Kindertagesstätte,Deutsch,"Kinder,Familie,Kita/Ganztag",,52.589429,13.294482
AWO pro:mensch gGmbH,AWO Kita „Blumentraum“,Marzahn-Hellersdorf,12627,Rathener Straße 3,030 31 98 68 80,030 30 60 95 86,https://www.awo-promensch.de/kindertagesstaetten/kita-blumentraum/,kita.blumentraum@awo-promensch.de,Kindertagesstätte,Deutsch,"Kinder,Familie,Kita/Ganztag",,51.003096,13.839497
AWO pro:mensch gGmbH,AWO Kita „Kunterbunt“,Marzahn-Hellersdorf,12687,Liebensteiner Straße 20-22,030 930 96 07,030 39206120,https://www.awo-promensch.de/kindertagesstaetten/kita-kunterbunt/,kita.kunterbunt@awo-promensch.de,Kindertagesstätte,Deutsch,"Kinder,Familie,Kita/Ganztag",,52.5584863,13.5591357
AWO pro:mensch gGmbH,AWO Kita „Notenhopser“,Marzahn-Hellersdorf,12681,Murtzaner Ring 70-72,030 22 50 54 521,030 2250 54 528,https://www.awo-promensch.de/kindertagesstaetten/kita-notenhopser/,kita.notenhopser@awo-promensch.de,Kindertagesstätte,Deutsch,"Kinder,Familie,Kita/Ganztag",,52.533312,13.541064
AWO pro:mensch gGmbH,AWO Kita „Raupe Nimmersatt“,Marzahn-Hellersdorf,12681,Marchwitzastraße 47/49,030 541 05 01,030 32 53 30 26,https://www.awo-promensch.de/kindertagesstaetten/kita-nimmersatt/,kita.nimmersatt@awo-promensch.de,Kindertagesstätte,Deutsch,"Kinder,Familie,Kita/Ganztag",,,
AWO pro:mensch gGmbH,AWO Kita „Tautropfen“,Steglitz-Zehlendorf,12169,Steglitzer Damm 69a,030 206 22 99 80,030 206 22 99 829,https://www.awo-promensch.de/kindertagesstaetten/kita-tautropfen/,kita.tautropfen@awo-promensch.de,Kindertagesstätte,Deutsch,"Kinder,Familie,Kita/Ganztag",,52.450175,13.348517
AWO pro:mensch gGmbH,AWO Kita „Wirbelwind“,Lichtenberg,12681,Marzahner Chaussee 205-207,030 766 87 69 20,030 766 87 69 29,https://www.awo-promensch.de/kindertagesstaetten/kita-wirbelwind/,kita.wirbelwind@awo-promensch.de,Kindertagesstätte,Deutsch,"Kinder,Familie,Kita/Ganztag",,52.5203977,13.5309475
AWO Kreisverband Spree-Wuhle e.V.,"""Opstapje"" - Unterstützung von Eltern mit Kitakindern",Friedrichshain-Kreuzberg,10997,Adalbertstraße 23a,030 695 658 85 29,030 695 356 35,https://www.awo-spree-wuhle.de/opstapje-hippy/,h.dreibholz@awo-spree-wuhle.de,"Frühförderung für Familien, Familienbildung für Familien/ Spiel- und Lernprogramm für Eltern mit Kindern von 18-24 Monaten","Deutsch,Türkisch","Kinder,Familie,Migration",,52.503797,13.421551
AWO Kreisverband Spree-Wuhle e.V.,"""Rucksack""",Friedrichshain-Kreuzberg,10997,Adalbertstraße 23a,030 695 658 85 28,030 695 356 35,https://www.awo-spree-wuhle.de/rucksack/,k.werth@awo-spree-wuhle.de,"Frühförderung für Familien, Familienbildung für Familien/ Ein Programm zur alltagsintegrierten Sprach- und Familienbildung in Kindertagesstätten",Deutsch,"Kinder,Familie,Migration",,52.503797,13.421551
AWO Kreisverband Spree-Wuhle e.V.,"Jugendfreizeiteinrichtung ""Villa Pelikan""",Marzahn-Hellersdorf,12621,Hellersdorfer Straße 27,030 562 999 79,030 562 999 78,https://www.awo-spree-wuhle.de/villa-pelikan/,villa-pelikan@awo-spree-wuhle.de,Offene Kinder- und Jugendarbeit,Deutsch,"Kinder,Jugend",,52.516074,13.588771
AWO Kreisverband Spree-Wuhle e.V.,"Jugendfreizeiteinrichtung ""Die Nische""",Marzahn-Hellersdorf,12627,Louis-Lewin-Straße 40c,030 998 59 91,,https://www.awo-spree-wuhle.de/die-nische/,die-nische@awo-spree-wuhle.de,Offene Kinder- und Jugendarbeit,Deutsch,"Kinder,Jugend",,52.532817,13.624023
AWO Kreisverband Spree-Wuhle e.V.,"Jugendfreizeiteinrichtung ""Balzerplatz""",Marzahn-Hellersdorf,12683,Köpenicker Straße 184,030 54 71 82 10,,https://www.awo-spree-wuhle.de/balzerplatz/,balzerplatz@awo-spree-wuhle.de,Kinder- und Jugendfreizeiteinrichtung mit generationsübergreifenden Angeboten/ Das Freizeithaus wird in Kooperation durch die Träger pad gGmbH und AWO Spree-Wuhle e.V. getragen,Deutsch,"Kinder,Jugend",,52.487338,13.560174
AWO Kreisverband Südost e.V.,Schulstation „ Theos Schüleroase“,Neukölln,12047,Hobrechtstraße 76,030 620 056 68,030 620 057 69,https://www.awo-südost.de/schulstation-theos-schueleroase,theos-schueleroase@awo-suedost.de,Schulsozialarbeit für Kinder und Jugendliche,Deutsch,"Kinder,Jugend",,52.486855,13.42672
AWO Kreisverband Südost e.V.,Schulstation „Atlantis“,Neukölln,12051,Mariendorfer Weg 69,030 627 26 947,030 627 26 986,https://www.awo-südost.de/schulstation-atlantis,atlantis@awo-suedost.de,Schulsozialarbeit für Kinder und Jugendliche,Deutsch,"Kinder,Jugend",,52.464157,13.430211
AWO Kreisverband Südost e.V.,Lernwerkstatt an der Theodor Storm Grundschule,Neukölln,12047,Hobrechtstr. 76,030 620 05 668,030 620 05 769,www.awo-südost.de/lernwerkstatt-theodor-storm-grundschule,,Lernwerkstatt für Schüler*innen,Deutsch,"Kinder,Jugend",,52.486855,13.42672
AWO Kreisverband Südost e.V.,Stadtteil-Lernwerkstatt Campus Rütli,Neukölln,12045,Weserstr. 198,030 818 557 97,030 818 557 96,https://www.awo-südost.de/stadtteil-lernwerkstatt-campus-ruetli,markus-hein@awo-suedost.de,Lernwerkstatt,Deutsch,"Kinder,Jugend",,52.487201,13.43295
AWO pro:mensch gGmbH,Stationäre Wohngruppen/Erziehungsbeistandschaft,Marzahn-Hellersdorf,12623,Hultschiner Damm 98,030 56 70 13 89,030 56 70 13 95,https://www.awo-promensch.de/hilfen-zur-erziehung/betreutes-wohnen/,hze-stationaer@awo-promensch.de,"Betreutes Wohnen für Kinder und Jugendliche, Hilfen zur Erziehung für Familien",Deutsch,"Kinder,Jugend,Familie",,52.483697,13.602699
AWO Kreisverband Südost e.V.,"Jugend- und Gemeinschaftshaus ""Die Scheune""",Neukölln,12055,Böhmische Straße 39a,030 319 880 98,,https://www.awo-südost.de/jugendarbeit-die-scheune,jc-scheune@awo-suedost.de,"Freizeitangebot für Kinder und Jugendliche, Jugendclub für Kinder und Jugendliche",Deutsch,"Kinder,Jugend,Kultur",,50.893846,14.80778
AWO Kreisverband Südost e.V.,"Kinder- u. Jugendfreizeiteinrichtung ""Judith-Auer""",Lichtenberg,10369,Otto-Marquardt-Straße 6-8,030 288 36 306,,https://www.awo-südost.de/jugendarbeit-judith-auer,jc-lichtenberg@awo-suedost.de,"Freizeitangebot für Kinder und Jugendliche, Jugendclub für Kinder und Jugendliche",Deutsch,"Kinder,Jugend,Kultur",,52.533004,13.471238
AWO Kreisverband Spandau e.V.,STEPPIN' EASY Tanzgruppe für Erwachsene und Kinder,Spandau,13597,"Kulturhaus Spandau, Mauerstraße 6",033 051 262 51,,http://www.steppin-easy.de/,dagmar.g@steppin-easy.de,Freizeitangebot für Jugendliche und Erwachsene,Deutsch,"Kultur,Jugend",,52.535488,13.202385
AWO Kreisverband Spree-Wuhle e.V.,"Abenteuer- und Bauspielplatz ""Forcki""",Friedrichshain-Kreuzberg,10247,Eldenaer Straße 12,030 453 056 690,030 453 056 691,www.awo-spree-wuhle.de/asp-forcki/,spielplaetzchen@awo-spree-wuhle.de,"Kinderfreizeiteinrichtung der offenen Kinder und Jugendarbeit nach VIII. SGB, § 11 Kinder- und Jugendhilfegesetz (KJHG)",Deutsch,"Kultur,Jugend,Kinder",,52.520163,13.459887
AWO Landesverband Berlin e.V.,Landesjugendwerk der AWO Berlin,Lichtenberg,10369,Otto-Marquardt-Straße 6-8,030 72 00 66 97,030 72 01 38 96,www.ljw-berlin.de,info@ljw-berlin.de,"Freizeitangebot für Kinder und Jugendliche, Jugendarbeit",Deutsch,"Kultur,Kinder,Jugend",,52.533004,13.471238
AWO Landesverband Berlin e.V.,JugendKulturZentrum Pumpe,Mitte,10785,Lützowstraße 42,030 26 39 17 00,030 26 39 17 08,www.pumpeberlin.de,kontakt@pumpeberlin.de,"Freizeitangebot für Kinder und Jugendliche, Jugendarbeit",Deutsch,"Kultur,Kinder,Jugend",,52.37932,13.410727
AWO Kreisverband Spree-Wuhle e.V.,LSBTI*- Krisenwohnung,Friedrichshain-Kreuzberg,10247,Rigaer Str. 55b (Postadresse),030 5461 5606,,https://www.awo-spree-wuhle.de/lsbti-krisenwohnung/,lsbti-krisenwohnung@awo-spree-wuhle.de,"Zufluchtswohnung für LSBTI*-Personen, die von Gewalt, insbesondere von häuslicher Gewalt oder von Zwangsverheiratung, bedroht sind",Deutsch,LGBTQI*,,52.515222,13.474104
AWO Kreisverband Spree-Wuhle e.V.,Begegnungszentrum,Friedrichshain-Kreuzberg,10997,Adalbertstraße 23a,030 695 356 22,030 695 356 35,https://www.awo-spree-wuhle.de/begegnungszentrum/,begegnungszentrum@awo-spree-wuhle.de,"Migrationsberatung - Beratung für Migrant*innen, Frühförderung für Kinder, Familienbildung für Familien, Seniorenbegegnungsstätte für Migrant*innen und Senior*innen","Deutsch,Englisch,Französisch,Italienisch,Spanisch,Türkisch,Serbisch,Kroatisch,Bosnisch",Migration,,52.503797,13.421551
AWO Kreisverband Spree-Wuhle e.V.,Bayouma-Haus,Friedrichshain-Kreuzberg,10247,Frankfurter Allee 110,030 29 04 91 36,030 29 04 91 29,https://www.awo-spree-wuhle.de/bayouma-haus/,bayouma-haus@awo-spree-wuhle.de,Freizeitangebote für Senior*innen und Migrant*innen / Förderung von Selbsthilfeinitiativen / Förderung der gegenseitigen Begegnung & Unterstützung unter Nachbarn.,"Deutsch,Englisch,Spanisch,Französisch,Italienisch,Vietnamesisch","Migration,Kultur",,52.512893,13.475067
AWO Kreisverband Spree-Wuhle e.V.,"""Mariposa""",Friedrichshain-Kreuzberg,10247,Frankfurter Allee 110,030 29 04 66 11,030 29 04 91 29,https://www.awo-spree-wuhle.de/mariposa/,b.apicella@awo-spree-wuhle.de,"Unterstützung von Migrantinnen bei der Integration in die deutsche Gesellschaft durch Workshops, Kursangebote und Freizeitangebote / wegweisende Kurzberatung / Informationsvermittlung","Deutsch,Italienisch,Spanisch,Vietnamesisch","Migration,Kultur",,52.512893,13.475067
AWO Kreisverband Spree-Wuhle e.V.,Kompetenz-Zentrum Interkulturelle Öffnung der Altenhilfe,Friedrichshain-Kreuzberg,10245,Simplonstraße 27,030 319 89 16 33,030 319 891 640,https://www.awo-spree-wuhle.de/kom-zen/,s.tanana@awo-spree-wuhle.de,"Sensibilisierung und Information der Öffentlichkeit über die Bedürfnisse und Kompetenzen älterer Einwander*innen sowie Aufbau und Förderung von Netzwerken, die berlin- und bundesweit arbeiten","Deutsch,Türkisch,Arabisch,Polnisch","Migration,Pflege,Senior*innen",,46.194836,8.056438
AWO Kreisverband Mitte e.V.,„Dostluk“ – Deutsch-Türkische Seniorengruppe,Mitte,13355,Stralsunder Straße 6,030 45 60 64 60,,https://awo-mitte.de/frauen/,,Freizeitangebot für Migrantinnen und Migranten und Seniorinnen und Senioren,Deutsch,"Migration,Senior*innen",,53.727302,14.06411
AWO Landesverband Berlin e.V.,Heilpädagogische Praxis,Neukölln,12049,Hermannstraße 48,030 44 04 14 46,030 44 04 14 48,www.heilpädagogischepraxis.de,heilpaedagogischepraxis@yahoo.de,,Deutsch,Mitgliedsorganisation,,51.504071,14.626664
AWO Landesverband Berlin e.V.,Part In gGmbH - Förderung des Wohlfahrtswesens,Spandau,13599,Romy-Schneider-Str. 4,030 46060180,,www.partin-ggmbh.de,info@partin-ggmbh.de,,Deutsch,Mitgliedsorganisation,,52.544819,13.224983
AWO Kreisverband Südwest e.V.,Steglitzer Ambulante Dienste e.V.,Steglitz-Zehlendorf,12207,Osdorfer Straße 121,030 71 39 17 24,030 71 39 17 49,www.putzmobil.de,,,Deutsch,Mitgliedsorganisation,,52.417791,13.314735
AWO Landesverband Berlin e.V.,Verein zur Förderung des lebenslangen genossenschaftlichen Wohnens e.V.,,14002,Postfach 19 12 42,030 30 30 21 47,030 30 30 21 65,,volkert.asmussen@1892.de,,Deutsch,Mitgliedsorganisation,,36.67063,-89.10461
AWO Landesverband Berlin e.V.,"ANUAS e.V. Hilfsorganisation für Angehörige von Mord-, Tötungs-, Suizid- und Vermisstenfällen",Lichtenberg,10319,Erich-Kurz-Str. 5,030 25 04 51 51,,www.anuas.de,kontakt@anuas.de,Beratung für Erwachsene,Deutsch,"Mitgliedsorganisation,Beratung",,52.498652,13.520299
AWO Landesverband Berlin e.V.,Berliner Zentrum für Gewaltprävention (BZfG) e.V.,Friedrichshain-Kreuzberg,10247,Frankfurter Allee 35-37,030 95 61 38 38,03212 147 88 62,www.bzfg.de,office@bzfg.de,Beratung für Erwachsene,Deutsch,"Mitgliedsorganisation,Beratung",,52.515062,13.462036
AWO Landesverband Berlin e.V.,Julateg Finsolv Berlin Marzahn/Hellersdorf e.V.,Marzahn-Hellersdorf,12619,Ernst-Bloch-Straße 43,030 54 71 21 52,030 54 71 21 53,www.schuldnerberatung-julateg.de,info@sib-hellersdorf.de,Schuldner- und Insolvenzberatung für Menschen mit sozialen Schwierigkeiten und Erwachsene,Deutsch,"Mitgliedsorganisation,Beratung,finanzielle Schwierigkeiten",,52.52198,13.590898
AWO Kreisverband Südost e.V.,Julateg Finsolv Köpenick/Treptow e.V.,Treptow-Köpenick,12559,Salvador-Allende-Straße 87,030 65 57 93 8,030 65 57 94 0,http://www.schuldnerberatung-julateg.de,koepenick@julateg.org,Schuldner- und Insolvenzberatung für Menschen mit sozialen Schwierigkeiten und Erwachsene,Deutsch,"Mitgliedsorganisation,Beratung,finanzielle Schwierigkeiten",,52.444956,13.592651
AWO Kreisverband Südost e.V.,Julateg Finsolv Lichtenberg/Hohenschönhausen e.V.,Lichtenberg,10367,Normannenstraße 5a,030 510 10 07,030 510 10 04,http://www.schuldnerberatung-julateg.de,finsolv_lichtenberg@gmx.de,Schuldner- und Insolvenzberatung für Menschen mit sozialen Schwierigkeiten und Erwachsene,Deutsch,"Mitgliedsorganisation,Beratung,finanzielle Schwierigkeiten",,46.945887,7.396636
AWO Landesverband Berlin e.V.,Gehörlosenverband Berlin e.V.,Friedrichshain-Kreuzberg,10969,Friedrichstraße 12,030 25 17 05 3,,www.deafberlin.de,info@deafberlin.de,Beratung für Menschen mit Behinderung,Deutsch,"Mitgliedsorganisation,Beratung,Inklusion",,48.139456,16.953504
AWO Landesverband Berlin e.V.,White Unicorn e.V.,Marzahn-Hellersdorf,12623,Hultschiner Damm 148,,,www.white-unicorn.org,info@white-unicorn.org,"Beratung für Menschen mit Behinderung, Familienhilfe für Menschen mit Behinderung",Deutsch,"Mitgliedsorganisation,Beratung,Inklusion,Familie",,52.488004,13.605921
AWO Landesverband Berlin e.V.,Franz-Neumann-Stiftung,Friedrichshain-Kreuzberg,10961,Blücherstraße 62,,,www.awoberlin.de,norma.ostermeyer@awoberlin.de,Beratung für Jugendliche und Menschen mit Behinderung,Deutsch,"Mitgliedsorganisation,Beratung,Jugend,Inklusion",,52.495174,13.398255
AWO Landesverband Berlin e.V.,Informationszentrum Psychotherapie e.V.,Tempelhof-Schöneberg,10781,Barbarossastraße 64,030 32 70 91 37,030 56 97 72 91,https://psychotherapieberlinberatung.wordpress.com/,kontakt@izp-berlin.de,Beratung für Menschen mit psychischer Beeinträchtigung,Deutsch,"Mitgliedsorganisation,Beratung,psychische Beeinträchtigung",,52.491924,13.352217
AWO Kreisverband Berlin-Nordwest e.V.,BSD – Besondere soziale Dienste Nordwest gGmbH,Reinickendorf,13435,Wilhelmsruher Damm 226,030 40 39 80 80,030 40 39 80 82,www.bsd-nordwest.de,info@bsd-nordwest.de,"Beratung für Menschen mit sozialen Schwierigkeiten, Betreutes Wohnen für Menschen mit sozialen Schwierigkeiten, Wohnungslosenhilfe für Menschen mit sozialen Schwierigkeiten",Deutsch,"Mitgliedsorganisation,Beratung,Wohnungsnotfallhilfe,finanzielle Schwierigkeiten",,52.596211,13.337326
AWO Landesverband Berlin e.V.,AHB Berlin Leipzig gGmbH,Tempelhof-Schöneberg,12277,Motzener Straße 19,030 707 870 52,030 707 870 53,www.ahb-berlin.org,info@ahb-berlin.org,"Jugendarbeit für Kinder und Jugendliche, Hilfen zur Erziehung für Familien",Deutsch,"Mitgliedsorganisation,Familie,Kinder,Jugendliche",,52.236434,13.631196
AWO Landesverband Berlin e.V.,AMSOC - Ambulante Sozialpädagogik Charlottenburg e.V.,Charlottenburg-Wilmersdorf,14057,Kaiserdamm 21,030 33 77 26 90,030 33 77 26 90,www.amsoc.de,amsoc@web.de,Hilfen zur Erziehung für Kinder und Familien,Deutsch,"Mitgliedsorganisation,Familie,Kinder,Jugendliche",,52.510415,13.284317
AWO Landesverband Berlin e.V.,AWO Mitte Sozial- & Gesundheitsdienst gGmbH,Mitte,13347,Iranische Straße 5,030 832 19 30 10,,www.awo-familienpflege.de,info@awo-familienpflege.de,Familienpflege,Deutsch,"Mitgliedsorganisation,Familie,Kinder,Jugendliche",,52.554169,13.367579
AWO Landesverband Berlin e.V.,BALL e.V. - Betreuung arbeitsloser Leute und Lebenshilfe e.V.,Marzahn-Hellersdorf,12681,Marchwitzastraße 24-26,030 54 98 91 0,030 54 98 91 25,www.ball-ev-berlin.de,kontakt@ball-ev-berlin.de,,Deutsch,"Mitgliedsorganisation,finanzielle Schwierigkeiten",,52.522591,13.546056
AWO Landesverband Berlin e.V.,DILAB e.V. - Dienstleistungen für Arbeitnehmer und Betriebe,Friedrichshain-Kreuzberg,10247,Rigaer Straße 103,030 42 27 79 4,030 42 08 88 58,www.dilab.de,info@dilab.de,Schuldner- und Insolvenzberatung für Menschen mit sozialen Schwierigkeiten und Erwachsene,Deutsch,"Mitgliedsorganisation,finanzielle Schwierigkeiten",,52.518281,13.455216
AWO Landesverband Berlin e.V.,Affidamento gGmbH,Neukölln,10825,Innsbrucker Straße 37,030 7889 7796,030 5682 1223,https://affidamento.jimdo.com/,info@affidamento.de,"Beratung für Frauen, Betreutes Wohnen für Frauen, Wohnungslosenhilfe für Frauen und Menschen mit sozialen Schwierigkeiten",Deutsch,"Mitgliedsorganisation,finanzielle Schwierigkeiten,Frauen,Wohnungsnotfallhilfe",,47.522995,12.412423
AWO Landesverband Berlin e.V.,Denkzeit-Gesellschaft e.V.,Steglitz-Zehlendorf,10783,Goebenstraße 24,030 689 15 666,,www.denkzeit.com,info@denkzeit.com,Weiterbildung für Jugendliche und Menschen mit sozialen Schwierigkeiten,Deutsch,"Mitgliedsorganisation,finanzielle Schwierigkeiten,Kultur",,52.494242,13.363482
AWO Landesverband Berlin e.V.,LiSA e.V. - Interkultureller Mädchen- und Frauenladen,Charlottenburg-Wilmersdorf,14059,Spandauer Damm 65,030 32 26 60 9,,www.lisa-berlin.de,lisa.ev@gmx.de,Jugendarbeit für Kinder und Frauen,Deutsch,"Mitgliedsorganisation,Frauen,Kinder",,52.518682,13.287964
AWO Landesverband Berlin e.V.,berlin inklusion e.V.,Pankow,13189,Vinetastraße 64,030 33 89 56 95,030 33 89 56 97,www.berlin-inklusion.de,info@berlin-inklusion.de,Betreutes Wohnen für Menschen mit Behinderung,Deutsch,"Mitgliedsorganisation,Inklusion",,52.558964,13.414279
AWO Landesverband Berlin e.V.,Berliner Werkstätten für Behinderte GmbH (BWB),Mitte,13353,Westhafenstraße 4,0 800 541 333 4,030 39 09 61 97,www.bwb-gmbh.de,info@bwb-gmbh.de,"Integrationsbetrieb für Menschen mit Behinderung, Ausbildungsstätte für Menschen mit Behinderung",Deutsch,"Mitgliedsorganisation,Inklusion",,52.537576,13.343355
AWO Landesverband Berlin e.V.,FSD Lwerk Berlin Brandenburg gGmbH,Steglitz-Zehlendorf,12249,Kamenzer Damm 1,030 76 69 06 0,030 76 69 06 77,www.lwerk-berlin.de,lankwitz@lwnet.de,"Integrationsbetrieb für Menschen mit Behinderung, Ausbildungsstätte für Menschen mit Behinderung",Deutsch,"Mitgliedsorganisation,Inklusion",,52.433643,13.353565
AWO Landesverband Berlin e.V.,nobis gGmbH,Mitte,13127,Triftstr. 36,030 4472500 0,,www.nobis-berlin.de,info@nobis-berlin.de,,Deutsch,"Mitgliedsorganisation,Inklusion",,47.928303,16.876268
AWO Landesverband Berlin e.V.,Nordberliner Werkgemeinschaft gGmbH,Mitte,13127,Triftstr. 36,030 474 794 0,030 474 794 69,www.nbw.de,wl@nbw.de,Integrationsbetrieb für Menschen mit Behinderung,Deutsch,"Mitgliedsorganisation,Inklusion",,47.928303,16.876268
AWO Landesverband Berlin e.V.,Annedore-Leber-Berufsbildungswerk Berlin (ALBBW),Neukölln,12359,Paster-Behrens-Straße 88,030 66 58 80,030 66 58 81 34,www.albbw.de,info@albbw.de,Ausbildungsstätte für Jugendliche und Menschen mit Behinderung,Deutsch,"Mitgliedsorganisation,Inklusion,Jugend",,52.443419,13.443942
AWO Landesverband Berlin e.V.,unerhört e.V.,Lichtenberg,10367,Möllendorffstraße 111,030 510 670 80,030 644 92 777,www.unerhoert-berlin.org,kontakt@unerhoert-berlin.org,"Weiterbildung für Menschen mit Behinderung und Erwachsene, Betreutes Wohnen für Jugendliche und Menschen mit Behinderung und Erwachsene, Familienhilfe für Familien und Menschen mit Behinderung, Erziehungsberatung für Familien und Erwachsene",Deutsch,"Mitgliedsorganisation,Inklusion,Jugend",,52.516128,13.478772
AWO Landesverband Berlin e.V.,Sozialpädagogische Praxis Langer gGmbH,Steglitz-Zehlendorf,12163,Schlossstraße 119,030 236 336 17,030 236 336 19,www.praxislanger.de,verwaltung@praxislanger.de,"Betreutes Wohnen für Menschen mit Behinderung und Erwachsene, Hilfen zur Erziehung für Kinder und Familien",Deutsch,"Mitgliedsorganisation,Inklusion,Kinder,Familie",,48.599152,16.720182
AWO Landesverband Berlin e.V.,Mina - Leben in Vielfalt e.V.,Friedrichshain-Kreuzberg,10969,Friedrichstraße 1,030 403 65 76 20,,www.mina-berlin.eu,info@mina-berlin.de,,"Deutsch,Arabisch,Türkisch","Mitgliedsorganisation,Inklusion,Migration",,48.140192,16.952314
AWO Kreisverband Südost e.V.,Jugend Neukölln e.V.,Neukölln,12043,Uthmannstr. 17-19,030 60 92 81 04,030 60 92 81 05,www.jugendneukoelln.de,info@jugendneukoelln.de,,Deutsch,"Mitgliedsorganisation,Jugend",,44.7226394,-63.7599385
AWO Landesverband Berlin e.V.,Kompetenz Jugendhilfe gGmbH.,Mitte,10787,Kurfürstenstr. 79,030 31 01 87 22,030 31 80 00 11,https://www.kompetenz-jugend.de,info@kompetenz-jugend.de,Jugendarbeit,Deutsch,"Mitgliedsorganisation,Jugend",,52.448142,13.377585
AWO Landesverband Berlin e.V.,SPI A&Q gGmbH (Ausbildung & Qualifizierung Berlin - Brandenburg),Pankow,10405,Belforter Str. 20,030 55680420,,http://www.spi-aundq.de,berlin@spi-aundq.de,,Deutsch,"Mitgliedsorganisation,Jugend",,52.532143,13.41936
AWO Landesverband Berlin e.V.,ABU - Akademie für Berufsförderung und Umschulung gGmbH,Marzahn-Hellersdorf,12681,Beilsteiner Straße 118,030 54 99 60 110,030 54 99 60 111,www.abu-ggmbh.de,info@abu-ggmbh.de,"Beratung für Jugendliche und Erwachsene, Umschulung für Erwachsene, Ausbildungsstätte für Jugendliche und Erwachsene",Deutsch,"Mitgliedsorganisation,Jugend,Beratung",,52.528064,13.529691
AWO Landesverband Berlin e.V.,Zephir gGmbH,Steglitz-Zehlendorf,14165,Sachtlebenstraße 36,030 818 49 92,030 84 59 29 88,www.zephir-ggmbh.de,info@zephir-ggmbh.de,Hilfen zur Erziehung für Kinder und Jugendliche und Familien,Deutsch,"Mitgliedsorganisation,Jugend,Kinder,Familie",,52.413828,13.251134
AWO Landesverband Berlin e.V.,Kids & Co g.e.V. - gemeinnütziger Verein zur Förderung von Kindern und Jugendlichen,Marzahn-Hellersdorf,12629,Alt-Hellersdorf 29-31,030 54 37 68 12,030 54 37 68 12,www.kids-und-co.de,info@kids-und-co.de,"Freizeitangebot für Kinder und Jugendliche, Jugendarbeit für Kinder und Jugendliche",Deutsch,"Mitgliedsorganisation,Jugend,Kinder,Kultur",,52.537877,13.594744
AWO Kreisverband Spree-Wuhle e.V.,Hedwig-Wachenheim-Gesellschaft e.V.,Friedrichshain-Kreuzberg,10247,Oderstraße 16,030 22 19 99 90,,www.diehedwig.org,info@diehedwig.org,,Deutsch,"Mitgliedsorganisation,Jugend,Kultur",,52.145384,14.674293
AWO Landesverband Berlin e.V.,Bildung und Integration e.V.,Charlottenburg-Wilmersdorf,10715,Uhlandstraße 97,030 23 62 71 20,030 23 62 71,www.bint-berlin.de,info@bint-berlin.de,Ausbildungsstätte für Jugendliche und Migrant*innen und Erwachsene,Deutsch,"Mitgliedsorganisation,Jugend,Migration",,47.731594,16.076273
AWO Landesverband Berlin e.V.,FSD-Stiftung,Steglitz-Zehlendorf,12205,Drakestraße 2,030 817 25 00 20,030 817 25 00 70,www.fsd-stiftung.de,info@fsd-stiftung.de,"Jugendhilfe für Migrant*innen, Betreutes Wohnen für Jugendliche, Wohnungslosenhilfe für Menschen mit sozialen Schwierigkeiten und Erwachsene, Integrationsbetrieb für Menschen mit Behinderung",Deutsch,"Mitgliedsorganisation,Jugend,Migration,Wohnungsnotfallhilfe,finanzielle Schwierigkeiten,Inklusion",,52.474749,13.61336
AWO Kreisverband Südwest e.V.,Förderverein Senior*innen- und Jugendbegegnungsstätte Steglitz e.V.,Steglitz-Zehlendorf,12169,Bergstraße 84,030 792 69 08,,www.bergstrasse84.de,info@bergstrasse84.de,,Deutsch,"Mitgliedsorganisation,Jugend,Senior*innen",,47.594175,16.464448
AWO Landesverband Berlin e.V.,pro futura e.V.,Mitte,10407,Storkower Straße 139b,030 44 33 09 10,030 44 33 09 20,www.profutura.eu,info@profutura.eu,"Kindertagesstätte, Weiterbildung für Erwachsene",Deutsch,"Mitgliedsorganisation,Kinder",,52.533507,13.455809
AWO Landesverband Berlin e.V.,Verein der Freunde und Förderer der Liebmann-Schule e.V.,Mitte,10969,Friedrichstraße 13,030 50 58 58 31,030 50 58 58 35,https://www.liebmann-schule-berlin.de/foerderverein/,SL@Liebmann-SoS.Schule-Berlin-FK.de,Ausbildungsstätte für Kinder,Deutsch,"Mitgliedsorganisation,Kinder",,48.002753,16.217653
AWO Landesverband Berlin e.V.,ESPERANTO - Aufsuchende Hilfen e.V.,Neukölln,12055,Karl-Marx-Straße 206,030 68 97 75 80,030 68 97 75 85,www.esperanto-berlin.de,info@esperanto-berlin.de,Hilfen zur Erziehung für Kinder und Familien,Deutsch,"Mitgliedsorganisation,Kinder,Familie",,52.471693,13.441045
AWO Landesverband Berlin e.V.,F i F e.V. - Familie im Focus,Steglitz-Zehlendorf,12203,Brahmsstr. 42 i,030 36438011,,,familientherapie@familie-im-focus.de,,Deutsch,"Mitgliedsorganisation,Kinder,Familie",,48.253942,10.126783
AWO Landesverband Berlin e.V.,H.U.G.O. e.V.,Tempelhof-Schöneberg,12159,Isoldestraße 10,030 85 07 82 59,030 85 07 82 59,www.hugoev.de,info@hugoev.de,Hilfen zur Erziehung für Kinder und Familien,Deutsch,"Mitgliedsorganisation,Kinder,Familie",,52.745515,13.472888
AWO Landesverband Berlin e.V.,Leuchtturm Mitte e.V.,Mitte,10435,Schwedter Str. 234,030 84 85 60 21 0,030 84 85 60 21 5,www.leuchtturm-mitte.de,info@leuchtturm-mitte.de,Hilfen zur Erziehung für Kinder und Jugendliche und Familien,Deutsch,"Mitgliedsorganisation,Kinder,Familie",,52.538048,13.405298
AWO Landesverband Berlin e.V.,Notmütterdienst Familien- und Seniorenhilfe e.V.,Pankow,10439,Erich-Weinert-Str. 30,030 847 116 0,,www.notmuetterdienst.de,gs.berlin@notmuetterdienst.de,,Deutsch,"Mitgliedsorganisation,Kinder,Familie",,51.130728,14.980365
AWO Kreisverband Spree-Wuhle e.V.,Stützrad gGmbH,Pankow,13086,Langhansstr. 64,030 29 49 35 80,030 29 49 35 88,www.stuetzrad.de,zentrale@stuetzrad.de,Hilfen zur Erziehung für Kinder und Familien,Deutsch,"Mitgliedsorganisation,Kinder,Familie",,52.553875,13.4342
AWO Landesverband Berlin e.V.,Thessa e.V.,Neukölln,12353,Lipschitzallee 77,030 29 36 88 43,030 29 36 88 46,www.thessa-ev.de,kontakt@thessa-ev.de,Hilfen zur Erziehung für Kinder und Familien,Deutsch,"Mitgliedsorganisation,Kinder,Familie",,52.422788,13.464671
AWO Landesverband Berlin e.V.,Drachenreiter gGmbH,Mitte,13086,Langhansstr. 97,030 83205 800,,www.drachenreiter.berlin,info@drachenreiter.berlin,Kindertagesstätte,Deutsch,"Mitgliedsorganisation,Kinder,Familie,Kita/Ganztag",,52.553162,13.435747
AWO Landesverband Berlin e.V.,Lebensnah e.V.,Friedrichshain-Kreuzberg,10247,Jessnerstraße 4,030 29 35 19 45,030 29 66 84 16,www.lebensnah.de,kontakt@lebensnah.de,"Kindertagesstätte, Beratung für Menschen mit Behinderung, Hilfen zur Erziehung für Kinder und Familien, Erziehungsberatung für Familien",Deutsch,"Mitgliedsorganisation,Kinder,Inklusion,Familie,Beratung",,52.513391,13.473055
AWO Landesverband Berlin e.V.,FSD FAMOS gGmbH,Steglitz-Zehlendorf,12207,Steglitz-Zehlendorf,030 85 07 58 09,030 85 07 58 11,www.fsd-famos.de,post@fsd-famos.de,"Betreutes Wohnen für Kinder und Jugendliche, Hilfen zur Erziehung für Kinder und Jugendliche und Familien und Migrant*innen, Rechtsberatung für Erwachsene",Deutsch,"Mitgliedsorganisation,Kinder,Jugend,Familie,Beratung,Migration",,52.7839183,13.4255205
AWO Landesverband Berlin e.V.,INTEGRA – Integrative Sozialarbeit e.V.,Neukölln,12059,Wissmannstr.1,030 25 76 84 24,030 25 76 85 68,www.integraev.de,info@integraev.de,"Jugendhilfe für Kinder und Jugendliche und Migrant*innen, Hilfen zur Erziehung für Kinder und Jugendliche und Familien",Deutsch,"Mitgliedsorganisation,Kinder,Jugend,Familie,Beratung,Migration",,52.486232,13.423361
AWO Landesverband Berlin e.V.,Gesellschaft für StadtEntwicklung gGmbH,Mitte,13357,Prinzenallee 74,030 318 73 18 0,030 318 73 18 33,www.gseggmbh.de,info@gseggmbh.com,,Deutsch,"Mitgliedsorganisation,Kinder,Jugend,Familie,Migration,Frauen,finanzielle Schwierigkeiten",,52.555231,13.38347
AWO Landesverband Berlin e.V.,August Bebel Institut – Institut für soziale Demokratie,Mitte,13353,Müllerstraße 163,030 46 92 122,030 4692-124,www.august-bebel-institut.de,kontakt@august-bebel-institut.de,,Deutsch,"Mitgliedsorganisation,Kultur",,52.543646,13.363532
AWO Landesverband Berlin e.V.,Bürgerverein Luisenstadt e.V.,Mitte,10179,Michaelkirchstraße 2,030 27 95 40 8,030 27 95 40 8,www.buergerverein-luisenstadt.de,post@buergerverein-luisenstadt.de,"Freizeitangebot für Erwachsene, Beratung für Menschen mit sozialen Schwierigkeiten",Deutsch,"Mitgliedsorganisation,Kultur,finanzielle Schwierigkeiten,Beratung",,52.508351,13.420473
AWO Landesverband Berlin e.V.,Förderverein Mensch und Tier e.V.,Tempelhof-Schöneberg,12107,"Großbeerenstraße 2 - 10, Haus 1, Eingang 1.1",,,www.pferdeprojekt.de,info@pferdeprojekt.de,,Deutsch,"Mitgliedsorganisation,Kultur,Jugend,Kinder",,,
AWO Kreisverband Südost e.V.,FUSION – Intercultural Projects Berlin e.V.,Neukölln,12043,Karl-Marx-Str. 55,030 219 820 81,030 270 18 753,www.fusionstreet.com,info@fusionstreet.com,"Freizeitangebot für Kinder und Jugendliche, Jugendclub für Kinder und Jugendliche",Deutsch,"Mitgliedsorganisation,Kultur,Jugend,Kinder",,47.942169,16.098546
AWO Landesverband Berlin e.V.,Multikulturelles Jugend Integrationszentrum e.V.,Charlottenburg-Wilmersdorf,10627,Kaiser-Friedrich-Str. 34,030 857 407 35,030 308 312 02,www.mji-berlin.de,info@mji-berlin.de,"Freizeitangebot für Kinder und Jugendliche, Jugendarbeit für Kinder und Jugendliche",Deutsch,"Mitgliedsorganisation,Kultur,Jugend,Kinder",,52.510661,13.301308
AWO Landesverband Berlin e.V.,NaturFreunde Deutschlands Landesverband Berlin e.V.,Charlottenburg-Wilmersdorf,10713,Paretzer Str. 7,030 810 560 250,,www.naturfreunde-berlin.de,info@naturfreunde-berlin.de,Freizeitangebot für Kinder und Jugendliche und Erwachsene,Deutsch,"Mitgliedsorganisation,Kultur,Jugend,Kinder",,52.481621,13.317095
AWO Landesverband Berlin e.V.,Theater am Park e.V.,Marzahn-Hellersdorf,12683,Frankenholzer Weg 4,030 514 37 14,0721 15 14 73 38 0,www.tap-biesdorf.de,Besucherservice@TaP-Biesdorf.de,Freizeitangebot für Kinder und Jugendliche und Erwachsene,Deutsch,"Mitgliedsorganisation,Kultur,Jugend,Kinder",,52.511218,13.564777
AWO Landesverband Berlin e.V.,Fort-Schritte e.V.,Friedrichshain-Kreuzberg,10247,Weichselstraße 24a,030 68 83 76 60,030 68 83 76 58,www.fortschritte-berlin.de,buero@fortschritte-berlin.de,"Betreutes Wohnen für Jugendliche, Hilfen zur Erziehung für Kinder und Familien, Reisen für Kinder und Jugendliche",Deutsch,"Mitgliedsorganisation,Kultur,Kinder,Jugend",,52.677595,13.557703
AWO Landesverband Berlin e.V.,FINDUS e.V.,Marzahn-Hellersdorf,12681,Otto-Rosenberg-Str.1,0160 2846605,,www-fundus-berlin.eu,info@findus-berlin.eu,,Deutsch,"Mitgliedsorganisation,Kultur,Kinder,Jugendliche,Migration",,52.550726,13.54629
AWO Landesverband Berlin e.V.,Baugenossenschaft „Freie Scholle“,Reinickendorf,13509,Schollenhof 7,030 43 80 00 0,030 43 80 00 18,www.freiescholle.de,mail@freiescholle.de,,Deutsch,"Mitgliedsorganisation,Kultur,Senior*innen",,52.599938,13.301127
AWO Landesverband Berlin e.V.,Südost Europa Kultur e.V.,Friedrichshain-Kreuzberg,10963,Großbeerenstraße 88,030 25 37 79 90,030 25 29 85 74,www.suedost-ev.de,info@suedost-ev.de,"Freizeitangebot für Migrant*innen, Beratung für Migrant*innen",Deutsch,"Mitgliedsorganisation,Migration,Beratung,Kultur",,52.499427,13.385772
AWO Landesverband Berlin e.V.,navitas gGmbH,Neukölln,10827,Karl-Marx-Straße 206,030 68 97 75 80,030 68 97 75 85,www.navitas-ggmbh.de,info@navitas-ggmbh.de,"Freizeitangebot für Senior*innen, Beratung für Menschen mit Suchtproblematik, Betreutes Wohnen für Menschen mit sozialen Schwierigkeiten, Hilfen zur Erziehung für Familien, Wohnungslosenhilfe für Menschen mit sozialen Schwierigkeiten und Erwachsene",Deutsch,"Mitgliedsorganisation,Sucht,Senior*innen,Wohnungsnotfallhilfe,Familie,Jugend",,52.471693,13.441045
AWO Landesverband Berlin e.V.,"Stiftung SPI - Sozialpädagogisches Institut Berlin ""Walter May""",Mitte,13349,Müllerstraße 74,030 45 97 93 0,030 45 97 93 66,www.stiftung-spi.de,info@siftung-spi.de,"Jugendarbeit, Betreutes Wohnen für Menschen mit Suchtproblematik, Wohnungslosenhilfe für Frauen und Menschen mit Suchtproblematik und Menschen mit sozialen Schwierigkeiten und Erwachsene, Ausbildungsstätte für Erwachsene",Deutsch,"Mitgliedsorganisation,Sucht,Wohnungsnotfallhilfe,Frauen,Jugend",,47.376254,8.528591
AWO Gemeinnützige Pflegegesellschaft mbH,Sozialstation Marzahn/Hellersdorf,Marzahn-Hellersdorf,12627,Janusz-Korczak-Straße 32,030 99 28 90 0,030 99 28 90 - 15,https://www.awo-pflegenetz.de/startseite/sozialstation-marzahn-hellersdorf/,sst-marzahn-hellersdorf@awo-pflegenetz.de,Ambulante Pflege für Menschen mit Pflegebedarf,Deutsch,Pflege,,52.538681,13.606466
AWO Gemeinnützige Pflegegesellschaft mbH,Sozialstation Mitte/Tiergarten,Mitte,10559,Perleberger Straße 31,030 39 99 41 0,030 39 99 41 - 41,https://www.awo-pflegenetz.de/startseite/sozialstation-mitte-tiergarten/,sst-mitte-tiergarten@awo-pflegenetz.de,Ambulante Pflege für Menschen mit Pflegebedarf,Deutsch,Pflege,,52.531596,13.348446
AWO Gemeinnützige Pflegegesellschaft mbH,Sozialstation Pankow/Friedrichshain,Pankow,10249,Ebertystraße 41,030 42 12 8 67,030 42 12 8 - 68,https://www.awo-pflegenetz.de/startseite/sozialstation-pankow-friedrichshain/,sst-pankow-friedrichshain@awo-pflegenetz.de,Ambulante Pflege für Menschen mit Pflegebedarf,Deutsch,Pflege,,52.524301,13.45296
AWO Gemeinnützige Pflegegesellschaft mbH,Sozialstation Reinickendorf,Reinickendorf,13437,Roedernallee 77/78,030 40 89 85 3,030 40 89 85 - 40,https://www.awo-pflegenetz.de/startseite/sozialstation-reinickendorf/,sst-reinickendorf@awo-pflegenetz.de,Ambulante Pflege für Menschen mit Pflegebedarf,Deutsch,Pflege,,,
AWO Gemeinnützige Pflegegesellschaft mbH,Sozialstation Waidmannslust/Tegel,Reinickendorf,13509,Waidmannsluster Damm 79,030 43 36 04 5,030 43 36 61 - 0,https://www.awo-pflegenetz.de/startseite/sozialstation-waidmannslust-tegel/,sst-waidmannslust-tegel@awo-pflegenetz.de,Ambulante Pflege für Menschen mit Pflegebedarf,Deutsch,Pflege,,52.60087,13.303604
AWO Gemeinnützige Pflegegesellschaft mbH,Sozialstation Wedding,Mitte,13347,Reinickendorfer Straße 58 a,030 45 79 83 3,030 45 79 83 - 40,https://www.awo-pflegenetz.de/startseite/sozialstation-wedding/,sst-wedding@awo-pflegenetz.de,Ambulante Pflege für Menschen mit Pflegebedarf,Deutsch,Pflege,,50.622092,9.445231
AWO Gemeinnützige Pflegegesellschaft mbH,Wohngemeinschaft Marzahn-Hellersdorf (Tollensestraße),Marzahn-Hellersdorf,,,030 99 28 90 10,030 99 28 90 15,https://www.awo-pflegenetz.de/wohnen/,sst-marzahn-hellersdorf@awo-pflegenetz.de,Wohngemeinschaft für pflegebeürftige Menschen ,Deutsch,Pflege,,,
AWO Gemeinnützige Pflegegesellschaft mbH,Wohngemeinschaft Reinickendorf (Hielscher Straße),Reinickendorf,,,030 40 89 85 3,,https://www.awo-pflegenetz.de/wohnen/,sst-reinickendorf@awo-pflegenetz.de,Wohngemeinschaft für pflegebeürftige Menschen ,Deutsch,Pflege,,,
AWO Gemeinnützige Pflegegesellschaft mbH,Wohngemeinschaft Wedding (Barfusstraße),Mitte,,,030 45 79 83 3,,https://www.awo-pflegenetz.de/wohnen/,sst-wedding@awo-pflegenetz.de,Wohngemeinschaft für pflegebeürftige Menschen ,Deutsch,Pflege,,,
AWO Gemeinnützige Pflegegesellschaft mbH,Wohngemeinschaft Wedding (Adolfstraße),Mitte,,,030 45 79 83 3,,https://www.awo-pflegenetz.de/wohnen/,sst-wedding@awo-pflegenetz.de,Wohngemeinschaft für pflegebeürftige Menschen ,Deutsch,Pflege,,,
AWO Kreisverband Spree-Wuhle e.V.,"Tagespflege ""Am Park""",Friedrichshain-Kreuzberg,10249,Platz der Vereinten Nationen 1,030 294 52 98,030 420 297 41,https://www.awo-spree-wuhle.de/tagespflege-am-park/,am-park@awo-spree-wuhle.de,"Verbesserung der Lebenssituation pflegebedürftiger Menschen, Tagespflege",Deutsch,Pflege,,48.2323362,16.4152338
AWO Gemeinnützige Pflegegesellschaft mbH,AWO Gemeinnützige Pflegegesellschaft mbH,Mitte,13347,Reinickendorfer Str. 58a,030 46 90 66 0,030 46 90 66–30,www.awo-pflegenetz.de,info@awo-pflegenetz.de,Geschäftsstelle,Deutsch,"Pflege,Mitgliedsorganisation",,52.554174,13.366498
AWO Kreisverband Spandau e.V.,AWO Tagespflege Spandau,Spandau,13595,Grimnitzstraße 6c,030 36 80 13 74,030 36 80 13 75,https://www.awo-spandau.de/Senior*innen/tagespflege.html,tagespflege@awo-spandau.de,Tagespflege für Senior*innen und Menschen mit Pflegebedarf,Deutsch,"Pflege,Senior*innen",,52.484626,13.515273
AWO pro:mensch gGmbH,Therapeutisches Übergangswohnheim Lankwitz,Steglitz-Zehlendorf,12249,Kamenzer Damm 1,030 766 908 0,,https://www.awo-promensch.de/integration/tuewh-lankwitz/,uewh.leitung@awo-promensch.de,Betreutes Wohnen für Menschen mit psychischer Beeinträchtigung,Deutsch,psychische Beeinträchtigung,,52.433643,13.353565
AWO Kreisverband Berlin-Nordwest e.V.,Senior*innentagesstätte „ Freie Scholle“,Reinickendorf,13509,Waidmannsluster Damm 79,030 43 40 70 11,,https://www.awo-nordwest.de/einrichtung-waidmannsluster-damm/,,"Freizeitangebot für Senior*innen, Senior*innenbegegnungsstätte für Senior*innen",Deutsch,Senior*innen,,52.60087,13.303604
AWO Kreisverband Berlin-Nordwest e.V.,Senior*innentreff „Roedernallee“,Reinickendorf,13437,Roedernallee 77/78,030 411 58 63,030 41 47 98 59,www.awo-nordwest.de,kreisbuero@awo-nordwest.de,Freizeitangebot für Senior*innen,Deutsch,Senior*innen,,,
AWO Kreisverband Berlin-Nordwest e.V.,Wandern für Senior*innen in der Arnouxstraße,Pankow,13127,Arnouxstraße 10,030 47 55 91 68,,www.awo-nordwest.de,awo-nordwest-arnouxstr@tonline.De,Freizeitangebot für Senior*innen,Deutsch,Senior*innen,,52.607057,13.425731
AWO Kreisverband Mitte e.V.,Freizeitstätte Club Tiergarten,Mitte,10551,Turmstraße 71,0172 177 37 82,,https://awo-mitte.de/senioren-pflege/,,"Freizeitangebot für Seniorinnen und Senioren, Seniorenbegegnungsstätte für Seniorinnen und Senioren",Deutsch,Senior*innen,,48.274811,14.317008
AWO Kreisverband Mitte e.V.,Freizeitstätte Schillerpark,Mitte,13349,Barfusstraße 22/24,030 456 40 22,,https://awo-mitte.de/senioren-pflege/,awo-schillerpark@awo-mitte.de,"Freizeitangebot für Seniorinnen und Senioren, Seniorenbegegnungsstätte für Seniorinnen und Senioren",Deutsch,Senior*innen,,,
AWO Kreisverband Mitte e.V.,Amtsstube Buchholz,Pankow,13127,Berliner Straße 24,030 47 44 839,,https://awo-mitte.de/senioren-pflege/#freizeit,reif@awo-mitte.de,"Freizeitangebot für Seniorinnen und Senioren, Seniorenbegegnungsstätte für Seniorinnen und Senioren",Deutsch,Senior*innen,,48.24655,12.687193
AWO Kreisverband Mitte e.V.,"Projekt ""Nachbarn helfen Nachbarn""",Pankow,13089,Romain-Rolland-Straße 138,030 47 3021 12,,https://awo-mitte.de/senioren-pflege/#freizeit,reif@awo-mitte.de,Ehrenamtlicher Besuchs- und Begleitdienst,Deutsch,Senior*innen,,52.57417,13.437572
AWO Kreisverband Südwest e.V.,Begegnungsstätte Goltzstraße,Tempelhof-Schöneberg,10781,Goltzstraße 19,030 200 51 765,030 200 51 773,https://www.awo-suedwest.de/regionalbuero-schoeneberg.html,schoeneberg@awo-suedwest.de,"Freizeitangebot für Senior*innen, Senior*innenbegegnungsstätte für Senior*innen",Deutsch,Senior*innen,,52.383132,13.400111
AWO Kreisverband Südwest e.V.,Begegnungsstätte „Reinhold-Voht-Haus“ – Soziale Dienste,Steglitz-Zehlendorf,12207,Osdorfer Straße 121,030 713 870 90,030 713 917 51,https://www.awo-suedwest.de/regionalbuero-steglitz.html,steglitz@awo-suedwest.de,Freizeitangebot für Senior*innen,Deutsch,Senior*innen,,52.417791,13.314735
AWO Kreisverband Südwest e.V.,Begegnungsstätte „Spukvilla“,Tempelhof-Schöneberg,12103,Albrechtstraße 110,030 751 50 89,030 7000 90 17,https://www.awo-suedwest.de/regionalbuero-tempelhof.html,schoeneberg@awo-suedwest.de,"Freizeitangebot für Senior*innen, Senior*innenbegegnungsstätte für Senior*innen",Deutsch,Senior*innen,,48.315588,16.314852
AWO Kreisverband Südwest e.V.,Ehrenamtlicher Besuchs- und Krankenhausbesuchsdienst,Steglitz-Zehlendorf,12207,Osdorfer Straße 121,030 713 870 90,,www.awo-suedwest.de,,Dienstleistungen für Senior*innen und Erwachsene,Deutsch,Senior*innen,,52.417791,13.314735
AWO Kreisverband Südwest e.V.,Gymnastik und Bewegungs- und Entspannungskurs,Tempelhof-Schöneberg,12103,Albrechtstraße 110,030 751 50 89 oder 751 25 45,,www.awo-suedwest.de,,Freizeitangebot für Senior*innen und Erwachsene,Deutsch,Senior*innen,,48.315588,16.314852
AWO Kreisverband Treptow-Köpenick e.V.,Senior*innenbegegnungsstätte Treptow-Köpenick,Treptow-Köpenick,12587,Müggelseedamm 244,030 645 19 45,030 640 946 30,www.awo-treptow-koepenick.de,buero@awo-tk.de,Begegnungsstätte für Senior*innen,Deutsch,Senior*innen,,52.447345,13.6344
AWO Landesverband Berlin e.V.,Seniorennetz Berlin,verschiedene Standorte,,,0171 221 69 85 und 030 253 89 208,,https://www.seniorennetz.berlin/,seniorennetz@awoberlin.de,"Beratung für Seniorinnen und Senioren, Weiterbildung für Seniorinnen und Senioren",Deutsch,Senior*innen,,,
AWO Kreisverband Spandau e.V.,Wohnen im Herbert-Kleusberg-Haus,Spandau,13593,Grimnitzstraße 6c,030 565 99 00 25,030 565 99 00-20,https://www.awo-spandau.de/Senior*innen/wohnen-im-herbert-kleusberg-haus.html,s.samardzic@awo-spandau.de,Wohnstätte für Menschen mit Behinderung und Senior*innen,Deutsch,"Senior*innen,Inklusion",,52.484626,13.515273
AWO Kreisverband Südwest e.V.,Arbeitskreis Selbsthilfe Sucht,Steglitz-Zehlendorf,12207,Osdorfer Straße 121,0174 23 98 407,,https://www.awo-suedwest.de/selbsthilfe.html,,Selbsthilfegruppe für Menschen mit Suchtproblematik,Deutsch,Sucht,,52.417791,13.314735
AWO Kreisverband Südwest e.V.,Blitzlicht - Hilfe zur Selbsthilfe für Alkohol- und Tablettenabhängige,Tempelhof-Schöneberg,12103,Albrechtstraße 110,030 711 67 96,,https://www.awo-suedwest.de/blitzlicht.html,,"Beratung für Menschen mit Suchtproblematik, Selbsthilfegruppe für Menschen mit Suchtproblematik",Deutsch,Sucht,,48.315588,16.314852
AWO Kreisverband Mitte e.V.,AWO Wohnen Kreuzberg,Friedrichshain-Kreuzberg,10969,Prinzenstraße 96,030 616 574 80,,https://awo-mitte.de/frauen/,wohnen@awo-mitte.de,"Betreutes Wohnen für Erwachsene, Wohnungslosenhilfe für Menschen mit sozialen Schwierigkeiten und Erwachsene",Deutsch,Wohnungsnotfallhilfe,,52.501098,13.408212
AWO Kreisverband Mitte e.V., 7tes Frauenhaus,Mitte,,,0170 9693 549,,https://awo-mitte.de/,Notfrauenhaus@awo-mitte.de,Notunterkunft für Frauen,Deutsch,"Wohnungsnotfallhilfe,Frauen",,,
AWO Kreisverband Südost e.V.,AWO Neukölln Marketing und Service GmbH,Neukölln,12043,Erkstraße 1,030 613 963 0,030 613 963 59,https://www.awo-nemus.de/,info@awo-nemus.de,Reinigung- und Handwerkerleistungen,Deutsch,,,52.480862,13.436075
AWO Kreisverband Südwest e.V.,AWO Putzmobil für ganz Berlin,Steglitz-Zehlendorf,12207,Osdorfer Straße 121,030 71 39 17 24,030 71 39 17 49,https://www.awo-suedwest.de/putzmobil.html,,Dienstleistungen für Erwachsene,Deutsch,,,,
